id,name,chain_type,province,city,district,address,business_hours,phone,image,lat,lng
1350, 影石Insta360北京朝阳合生汇授权体验店,授权专卖店,北京市,市辖区,朝阳区,西大望路甲22号合生汇B2K03AB ,周一～周日10:00-22:00,15600389557,https://res.insta360.com/static/597299c5eb87c7948625184bb70390e3/%E5%8C%97%E4%BA%AC%E5%90%88%E7%94%9F%E6%B1%87%E6%8E%88%E6%9D%83%E4%B8%93%E5%8D%96%E5%BA%97.jpeg,39.899565,116.486372
1407,影石Insta360北京西单大悦城授权体验店,授权专卖店,北京市,市辖区,西城区,北京市西城区西单大悦城购物中心4层,10:00 - 22:00,18522323191,https://res.insta360.com/static/56c7605caddafb217326dd5d6256f441/1751194714927.jpg,39.916963,116.379306
1291,影石Insta360北京清河万象汇授权体验店,授权专卖店,北京市,市辖区,海淀区,清河中街68号/66号院1号楼万象汇一层L114 ,周一～周日10:00-22:00,19231189360,https://res.insta360.com/static/4d17dede42cba9cbdacedb94298620c7/20240506-143517.jpeg,40.035789,116.341954
1576,影石Insta360北京首都机场T3授权体验店,授权专卖店,北京市,市辖区,朝阳区,北京市朝阳区首都机场路首都国际机场,06:00-22:00,17610848823,https://res.insta360.com/static/1c2edb210c876d8f467a94b7900a72e7/%E5%8C%97%E4%BA%AC%E9%A6%96%E9%83%BD%E6%9C%BA%E5%9C%BA.jpg,40.09,116.61
1584,影石Insta360北京亦庄龙湖天街授权体验店,授权专卖店,北京市,市辖区,大兴区,北京市大兴区博兴八路与兴海路交叉口龙湖亦庄天街1F-30A影石Insta360,10:00-22:00,17610268200,https://res.insta360.com/static/18d95ee55d042d354b3c5db2301ef2df/%E5%8C%97%E4%BA%AC%E9%BE%99%E6%B9%96%E4%BA%A6%E5%BA%84.jpg,39.76,116.5
1570,影石Insta360北京SKP授权体验店,授权专卖店,北京市,市辖区,朝阳区,北京市朝阳区建国路87号北京SKPF5层D5297影石Insta360,10:00-22:00,18610474243,https://res.insta360.com/static/56d44c69c9c3ae7c2ffb7ef208a83837/20251104-182606.jpg,39.92,116.49
1460,影石Insta360北京三里屯太古里授权体验店,授权专卖店,北京市,市辖区,朝阳区,北京市朝阳区三里屯太古里西区W1-12,10:00-22:00,17301391892,https://res.insta360.com/static/cca5bb5fdbc5756b4a6bbb376004b8f6/mmexport1757206205790.jpg,39.94,116.46
1468,影石Insta360北京超极合生汇授权体验店,授权专卖店,北京市,市辖区,昌平区,北京市昌平区北清路超极合生汇lg2-72,10:00-22:00,15611127757,https://res.insta360.com/static/0fe8d7fc7f45e43b090da50232599b0d/IMG_20250910_151536.jpg,40.1,116.3
1536,北京合生汇授权体验店,授权专卖店,北京市,市辖区,朝阳区,北京市朝阳区西大望路甲22号合生汇B2K03AB,10:00-22:00,15600389557,https://res.insta360.com/static/a5e9bd9fd6f5675084162a4c50de39f7/20241121-190002.jpeg,39.9,116.49
1443,影石Insta360北京望京凯德授权体验店,授权专卖店,北京市,市辖区,朝阳区,北京市朝阳区望京凯德mall商场1层,10:00-22:00,13011809502,https://res.insta360.com/static/d6d7f37e57607b9c97b2730c9ef424ca/mmexport1755252659030.jpg,40.0,116.47
1395,影石Insta360北京798创意园授权专卖店,授权专卖店,北京市,市辖区,朝阳区,酒仙桥路 4号院内751影石体验店（便利蜂旁边）,10:00~20:00,15679620963,https://res.insta360.com/static/6458cc9beab9585cd02cb8f3b2a710c0/1961751171666_.pic_hd.jpg,39.990565,116.504968
778,影石Insta360北京五棵松照材专卖店,授权专卖店,北京市,市辖区,海淀区,北京市海淀区西四环中路6号五棵松摄影器材城一层C24A影石,09:30-17:20,13121193161,https://res.insta360.com/static/faf87e707eb50e61049f3a5331257bc5/1%E4%BA%94%E6%A3%B5%E6%9D%BE%E9%97%A8%E5%BA%97%E7%85%A7%E7%89%87.jpeg,39.927195,116.282381
1525,影石Insta360北京马连道照材专区,合作体验点,北京市,市辖区,西城区,北京市西城区马连道摄影器材城4层南区202,9:30-18:00,18501219182,https://res.insta360.com/static/337507cfacbca0b0fe0d8a8808b128d3/882cac2deb236012889aeff533d6590.jpg,39.89,116.33
1352,北京马连道照材店,合作体验点,北京市,市辖区,西城区,马连道摄影器材城4层南区202张张丽摄影 ,周一～周日9:30-18:00,18501219182,,39.889093,116.332624
759,中体冠军,合作体验点,北京市,市辖区,昌平区,北七家温都水城能量馆北京中体冠军仓储店,,,,40.109687,116.375881
842,北京SKP商场店,合作体验点,北京市,市辖区,朝阳区,建国路87号五层,,,,39.916203,116.485557
499,北京三里屯店,合作体验点,北京市,市辖区,朝阳区,工体北路三里屯交汇处三里屯路19号院三里屯Village购物中心（顺电）,,,,39.9381,116.460212
906,北京东枫德必A座店,合作体验点,北京市,市辖区,朝阳区,东风南路8号东枫德必A座1层 黛德安,,,,39.960988,116.512677
497,北京东直门店,合作体验点,北京市,市辖区,东城区,东直门南大街1号北京来福士购物中心4层20号（顺电）,,,,39.94606,116.438918
902,北京中体冠军店,合作体验点,北京市,市辖区,昌平区,七家温都水城能量馆北京中体冠军仓储店,,,,40.109687,116.375881
850,北京公益西桥店,合作体验点,北京市,市辖区,丰台区,城南嘉园益城园14号楼BHGMall北京华联公益西桥购物中心（鹰巢数码）,,,,39.840786,116.375516
436,北京北苑上品店,合作体验点,北京市,市辖区,朝阳区,北苑路甲13号上品+互联网城市奥莱一层（UP+）,,,,40.037985,116.423171
851,北京四通桥当代店,合作体验点,北京市,市辖区,海淀区,中关村大街40号1层（鹰巢数码）,,,,39.976328,116.327636
691,北京国贸SOLOX店,合作体验点,北京市,市辖区,朝阳区,建国门外大街1号商场地上一层3L102、3L103、3L104号双层铺位SOLOX（SNOW51）,,,,39.918265,116.466224
498,北京国贸店,合作体验点,北京市,市辖区,朝阳区,建国门外大街一号中国国际贸易中心国贸商城三期3B209/210（顺电）,,,,39.916676,116.465988
845,北京复兴门百盛店,合作体验点,北京市,市辖区,西城区,复兴门内大街101号百盛购物中心南楼3层（鹰巢数码）,,,,39.91422,116.364773
816,北京奥莱店,合作体验点,北京市,市辖区,房山区,京良路首创奥特莱斯F1-A01B（恒洲苹果）,,,,39.769005,116.195571
500,北京新奥店,合作体验点,北京市,市辖区,朝阳区,湖景东路11号新奥购物中心B2（顺电）,,,,40.006364,116.402911
843,北京燕莎亮马桥店,合作体验点,北京市,市辖区,朝阳区,亮马桥路52号燕莎友谊商城5层（鹰巢数码）,,,,39.954562,116.469751
844,北京燕莎金源店,合作体验点,北京市,市辖区,海淀区,远大路1号金源燕莎友谊商城B1层（鹰巢数码）,,,,39.965015,116.297826
849,北京甘家口店,合作体验点,北京市,市辖区,海淀区,三里河路17号甘家口大厦一层鹰巢数码,,,,39.933037,116.339848
847,北京翠微公主坟店,合作体验点,北京市,市辖区,海淀区,复兴路33号公主坟翠微百货A座四层鹰巢数码,,,,39.914267,116.309228
846,北京翠微牡丹园店,合作体验点,北京市,市辖区,海淀区,花园路2号翠微百货牡丹园店三层鹰巢数码,,,,39.983318,116.373697
501,北京颐堤港店,合作体验点,北京市,市辖区,朝阳区,酒仙桥颐堤港商场（顺电）,,,,39.975869,116.498004
848,北京龙德广场店,合作体验点,北京市,市辖区,昌平区,立汤路186号翠微龙德广场3层（鹰巢数码）,,,,40.065969,116.422025
1552,北京五棵松摄影城华聿资通售点1,合作体验点,北京市,市辖区,海淀区,北京市海淀区五棵松摄影城B20,,,,39.93,116.28
1557,北京光华路SOHO大厦九州摄影器材售点1,合作体验点,北京市,市辖区,朝阳区,北京市朝阳区光华路22号光华路SOHO大厦一期二层 212,,,,39.92,116.46
1544,北京百子湾卡达摄影器材售点1,合作体验点,北京市,市辖区,朝阳区,北京市朝阳区广渠路11号院 能+中心底商A座103,,,,39.9,116.51
1550,北京五棵松博华同达售点1,合作体验点,北京市,市辖区,海淀区,北京五棵松国际摄影器材城一层C26,,,,39.93,116.28
1543,北京马连道卡达摄影器材售点1,合作体验点,北京市,市辖区,西城区,北京市西城区马连道11号马连道摄影器材城4层南区212号,,,,39.89,116.33
685,雪具授权体验店（三里屯旗舰店）,合作体验点,北京市,市辖区,朝阳区,工体北路8号院三里屯SOHO五楼6号商城B1-1650（冷山雪具）,,,,39.937095,116.460233
682,雪具授权体验店（顺义店）,合作体验点,北京市,市辖区,顺义区,马坡镇南陈路66号傲天极限装备库,,,,40.170011,116.622816
1425,影石Insta360天津梅江天街授权体验店,授权专卖店,天津市,市辖区,西青区,天津市西青区津门湖街丽江道6号龙湖天津梅江天街1F-41,10:00-22:00,16622572891,https://res.insta360.com/static/fa83f17658472a0ae8959582b065d6d6/image.png,39.07,117.21
1408,影石Insta360天津天河城授权体验店,授权专卖店,天津市,市辖区,和平区,天津市和平区天河城购物中心5FD12,10:00-22:00 ,13096518676,https://res.insta360.com/static/e26e74afe2a96fc57981d2b4b5961339/adb8e38202d3db5ca830f67fcda38734.JPEG,39.133042,117.210668
1353,影石Insta360天津万象城授权体验店,授权专卖店,天津市,市辖区,河西区,越秀路街道万象城B1-024-2,周一～周日10:00-22:00,13672044033,https://res.insta360.com/static/4dddf0c774e47deb1056714108b10a1d/6251735805199_.pic_hd.jpg,39.096493,117.219971
1392,影石Insta360天津南开大悦城授权体验店,授权专卖店,天津市,市辖区,南开区,天津市南开区南门外大街2-6号大悦城南区2F-D41影石,10:00-22:00,17695932048,https://res.insta360.com/static/1d5e136d1ec61d6ac9da4adde055ff1f/image.png,39.13894,117.186449
1409,影石Insta360天津百脑汇照材专卖店,合作体验点,天津市,市辖区,南开区,天津市南开区鞍山西道336号百脑汇商场1A03,9:30-19:00,15633811583,https://res.insta360.com/static/d58d5a1d0cdefb0b5e76a547756658d0/b9ef1ce6b22864c8983a4554dc20fc0c.jpg,39.121516,117.164491
1559,天津金元宝爱来无忧售点1,合作体验点,天津市,市辖区,滨海新区,天津市滨海新区开发区黄海路19号爱来无忧4楼,,,,39.04,117.69
533,天津六纬路店,合作体验点,天津市,市辖区,河东区,嘉里汇购物中心B1层B1039（顺电）,,,,39.133376,117.223534
901,天津冰峰店,合作体验点,天津市,市辖区,河东区,海河东路棉三创意园8号楼1541冰峰极限滑雪装备店,,,,39.09627,117.252536
534,天津友谊路,合作体验点,天津市,市辖区,河西区,乐园道9号（银河国际购物中心L3001）（顺电）,,,,39.095923,117.220342
815,天津爱来店,合作体验点,天津市,市辖区,滨海新区,东大街355号金元宝爱来无忧数码电器广场（恒州）,,,,39.020634,117.677629
1399,影石Insta360石家庄万象城授权体验店,授权专卖店,河北省,石家庄市,桥西区,河北省石家庄市桥西区中山西路108号华润万象城B1-B104A,10:00-22:00,13785418851,https://res.insta360.com/static/4196e9fc879ceba5425a296ea76d3d25/%E9%97%A8%E5%A4%B4.jpg,38.04813,114.485054
1480,影石Insta360石家庄太和电子城照材专卖店,授权专卖店,河北省,石家庄市,新华区,石家庄市新华区太和电子城一层F区40号,9:00~18:00,13582157063,https://res.insta360.com/static/9043bba87e93a431eeb4b5e57add5f25/a444ad279c8f24a97ed4d06765253f73.jpg,38.05,114.49
1567,河北石家庄织音1953影石insta专卖店,授权专卖店,河北省,石家庄市,长安区,河北省石家庄市长安区和平东路161号织音1953园区完美人生一层 N-1066,,13111527531,,38.06,114.52
1546,石家庄蓝墨里京东之家售点1,合作体验点,河北省,石家庄市,桥西区,河北省石家庄市桥西区蓝墨里购物中心1楼京东之家,,,,38.03,114.5
1549,石家庄保利广场京东之家售点1,合作体验点,河北省,石家庄市,长安区,体育北大街191号保利广场一层1009A ,,,,38.08,114.54
1551,石家庄太和电子城冀中数码售点1,合作体验点,河北省,石家庄市,新华区,金桥北大街太和电子城一层F区1-2号,,,,38.05,114.49
1554,石家庄海龙电子城佳尼特电子售点1,合作体验点,河北省,石家庄市,长安区,石家庄市长安区广安大街6号海龙电子城1楼A2-3,,,,38.05,114.53
1542,石家庄太和电子城新勇数码售点1,合作体验点,河北省,石家庄市,新华区,金桥北大街太和电子城一层F区24-25号,,,,38.05,114.49
1548,石家庄太和电子城珲安电子售点1,合作体验点,河北省,石家庄市,新华区,金桥北大街6号太和电子城一层F区40号,,,,38.05,114.49
1560,石家庄中冶盛世广场疆域蓝图售点1 ,合作体验点,河北省,石家庄市,裕华区,河北省石家庄市裕华区裕兴街道中冶盛世广场A座东南角,,,,38.01,114.55
1006,唐山超商店,合作体验点,河北省,唐山市,路北区,新华东道125号唐百超级商场一层苹果店,,,,39.63271,118.1853
1545,唐山数码广场照材专卖店,授权专卖店,河北省,唐山市,路北区,河北省唐山市路北区建设路硅谷大厦一层1b17,,,,39.65,118.18
1558,唐山北新道蜗牛摄影器材售点1,合作体验点,河北省,唐山市,路北区,唐山北新道蜗牛摄影器材售点1,,,,39.64,118.17
812,唐百超级商场店,合作体验点,河北省,唐山市,路北区,新华东道125号唐百超级商场一层苹果店（松联）,,,,39.632702,118.185295
1034,秦皇岛万象汇店,合作体验点,河北省,秦皇岛市,海港区,河北省秦皇岛市海港区河北大街中段115号乐都汇购物中心一层L143号i-Zone苹果,,,,39.93955,119.61028
1019,邯郸新世纪店,合作体验点,河北省,邯郸市,丛台区,中华大街与人民路交叉口新世纪广场北扩一层i-Zone苹果店,,,,36.61724,114.5017
1020,邯郸天鸿店,合作体验点,河北省,邯郸市,丛台区,联纺东路505号A座一楼02柜组苹果体验店,,,,36.63209,114.52612
1541,邯郸日月城燕赵数码售点1,合作体验点,河北省,邯郸市,丛台区,陵西大街阳光三联电器日月城一楼  ,,,,36.61,114.49
1048,邢台万达店,合作体验点,河北省,邢台市,襄都区,河北省邢台市开元北路与泉南大道交叉口西北角万达广场一层苹果店,,,,37.09114,114.51988
1555,邢台中华科技大厦彭朋电子售点1,合作体验点,河北省,邢台市,信都区,河北省邢台市信都区中华科技大厦一层112号  ,,,,37.08,114.49
1007,保定竞秀万博店,合作体验点,河北省,保定市,竞秀区,大街99号万博广场一层苹果店F10009号,,,,38.88246,115.47623
1566,河北保定市西大街影石Insta360专卖店,授权专卖店,河北省,保定市,莲池区,保定市莲池区淮军公所B区6号楼,,19931256777,,38.86,115.5
1556,保定银杏路西路塑叁工业园区今日吉瑞相机售点1,合作体验点,河北省,保定市,竞秀区,保定市竞秀区银杏路西路塑叁工业园区66号,,,,38.9,115.47
1547,保定颐高广场友联铭扬数码售点1,合作体验点,河北省,保定市,莲池区,河北省保定市莲池区裕华路颐高数码广场2028号,,,,38.51,115.29
811,保定万博店,合作体验点,河北省,保定市,竞秀区,东风中路1999号万博广场一楼（松联）,,,,38.882356,115.476353
681,雪具授权体验店（崇礼店）,合作体验点,河北省,张家口市,崇礼区,美食街一号傲天极限单双板集合店,,,,40.985163,115.298367
1033,沧州吾悦苹果店,合作体验点,河北省,沧州市,运河区,河北省沧州市运河区永安南大街与海河西路交叉口吾悦广场1002号i-Zone苹果,,,,38.27923,116.83448
810,沧州吾悦店,合作体验点,河北省,沧州市,运河区,永安南大道吾悦广场一楼（松联）,,,,29.564371,106.583369
1038,衡水怡然城店,合作体验点,河北省,衡水市,桃城区,河北省衡水市桃城区大庆东路369号怡然城北区一层1F-009商铺,,,,37.75502,115.70665
1553,衡水市紫金广场航拍视界售点1,合作体验点,河北省,衡水市,桃城区,桃城区紫金广场1195号门店,,,,37.75,115.67
1575,影石Insta360太原阳光数码港照材专区,授权专卖店,山西省,太原市,小店区,山西省太原市小店区南内环街阳光数码港二层A224,冬季早9点到下午6点，夏季早9点到下午7点,15536501051,https://res.insta360.com/static/e7079af600ade5418bf2ea9515b061ae/20251105-175031.jpeg,37.84,112.57
1232,影石小店区授权体验点,合作体验点,山西省,太原市,小店区,南内环街阳光数码港二层A223-224,,,,37.844818,112.570135
1237,尼佳数码体验店,合作体验点,山西省,太原市,小店区,南内环街130号青龙电脑城一层一期014号（西北门口）,,,,37.844829,112.563962
1236,菲林数码体验店,合作体验点,山西省,大同市,平城区,东信上悦城菲林数码,,,,40.059638,113.304699
1234,华洋数码影石体验点,合作体验点,山西省,朔州市,朔城区,南城街道鄯阳街华洋数码相机 ,,,,39.324797,112.437623
1235,一帆数码体验店,合作体验点,山西省,运城市,盐湖区,红旗西街电脑城一帆数码,,,,35.020893,110.994058
1539,影石Insta360沈阳三台子万象汇授权体验店,授权专卖店,辽宁省,沈阳市,皇姑区,辽宁省沈阳市皇姑区黄河北大街33号华润置地沈阳三台子万象汇L183,10:00-22:00,13889182947,https://res.insta360.com/static/f2e4bc375697f0ee3cb11a66ee72982e/mmexport3b3814ec4798e808c8ea34b4f561cf1e_1758093803897.jpeg,41.88,123.42
1563,影石Insta360沈阳万象城授权体验店,授权专卖店,辽宁省,沈阳市,和平区,辽宁省沈阳市和平区青年大街 288号华润置地沈阳万象城DL581,10:00-21:30,18302438825,https://res.insta360.com/static/1b60172b173e95bf1c2cb875007e34e0/img_v3_02rg_317ca6f3-3cbd-4b10-9390-f4de5c4472ag.jpg,41.78,123.44
1459,影石Insta360沈阳铁西万象汇授权体验店,授权专卖店,辽宁省,沈阳市,铁西区,沈阳市铁西区建设东路158号华润置地沈阳铁西万象汇B186,10:00-22:00,15102405592,https://res.insta360.com/static/c7c4ff86f59142b70c15a37e63456060/a4cf0ca888698b7ad216ef767035a878.jpg,41.8,123.38
1323,影石Insta360沈阳百脑汇照材专卖店,授权专卖店,辽宁省,沈阳市,和平区,文萃路百脑汇科技大厦1B05号,周一～周日9:00-17:00,17702442230,https://res.insta360.com/static/c52cd272b011049409078bd5eda5dadf/20240812-114655.jpeg,41.770557,123.433621
1521,影石Insta360沈阳东软科技城照材专卖店,授权专卖店,辽宁省,沈阳市,和平区,辽宁省沈阳市和平区三好街东软大厦一层1A007,9:00-17:00,13149802583,https://res.insta360.com/static/ee2db8c72c3d441e4a06e2683a538a2b/IMG_5719.JPG,41.77,123.43
433,万象汇店,合作体验点,辽宁省,沈阳市,铁西区,建设东路158号华润万象汇L582（Mettle3c数码集合）,,,,41.801677,123.379131
421,三好街百脑汇店,合作体验点,辽宁省,沈阳市,和平区,三好街百脑汇科技大厦1D03（3C数码企业微分销）,,,,41.770587,123.433357
426,嘉里城店,合作体验点,辽宁省,沈阳市,沈河区,青年大街123号嘉里城1层117号京东之家,,,,41.781421,123.443739
428,大悦城购物中心店,合作体验点,辽宁省,沈阳市,大东区,小东路10号大悦城购物中心C1D52商铺京东手机数码店（东中街地铁A口-门市）,,,,41.808926,123.473644
431,太原街店,合作体验点,辽宁省,沈阳市,和平区,中华路68号金旅酒店109商铺（苹果店）,,,,41.798012,123.407799
430,市府恒隆广场店,合作体验点,辽宁省,沈阳市,沈河区,青年大街1号市府恒隆广场负一层B123-2号铺位,,,,41.806851,123.440512
427,手机数码（铁西店）,合作体验点,辽宁省,沈阳市,铁西区,兴华南街21号4门（京东手机数码（铁西店））,,,,41.796933,123.37486
909,沈阳英图店,合作体验点,辽宁省,沈阳市,沈河区,青年大街268号前海环球汇GFC MallL150,,,,41.78548,123.441783
429,玖伍文化城店,合作体验点,辽宁省,沈阳市,和平区,太原北街玖伍文化城一楼京东手机数码店,,,,41.798664,123.408473
734,百脑汇大疆店,合作体验点,辽宁省,沈阳市,和平区,三好街百脑汇2楼2F16档,,,,41.770557,123.433621
425,皇姑万象汇店,合作体验点,辽宁省,沈阳市,皇姑区,崇山东路18号沈阳皇姑万象汇商场B1层B182号商铺京东之家,,,,41.840478,123.464293
724,视觉印象,合作体验点,辽宁省,沈阳市,和平区,三号街百脑汇2A15,,,,41.770557,123.433621
432,青年大街万象城店,合作体验点,辽宁省,沈阳市,和平区,青年大街288号万象城L505（Mettle3c数码集合）,,,,41.782077,123.441008
1587,影石Insta360大连罗斯福授权体验店,授权专卖店,辽宁省,大连市,沙河口区,辽宁省大连市沙河口区西安路街道139号罗斯福商场一层JT-05,9:30-21:30,15841764066,https://res.insta360.com/static/94ccb620dabf27e0be8a246937aed8e2/%E5%A4%A7%E8%BF%9E%E7%BD%97%E6%96%AF%E7%A6%8F.jpg,38.92,121.59
1335,影石Insta360大连华南万象汇授权体验店,授权专卖店,辽宁省,大连市,甘井子区,山东路 350号万象汇G层LG102,周一～周日9:30-21:30,18041188109,https://res.insta360.com/static/4c28123b3f9ac370cc6186c27f7c4aae/1730251388653.jpeg,38.997482,121.592533
841,影石Insta360大连奥林匹克照材专卖店,授权专卖店,辽宁省,大连市,西岗区,中山路奥电未来城地下二层东2001（地铁口第一家）,周一～周日9:30-17:30,18940998830,https://res.insta360.com/static/18db53e232cbe899f9300a6d08a0f94e/WechatIMG152.jpg,38.914928,121.616263
1302,大连多隆多商贸有限公司,合作体验点,辽宁省,大连市,西岗区,奥林匹克电子城东1326-1327号,,,,38.914853,121.616307
840,大连恒隆广场店,合作体验点,辽宁省,大连市,西岗区,恒隆广场B1层B24一步空间,,,,38.912722,121.615919
422,大连拓金店,合作体验点,辽宁省,大连市,西岗区,大同街156号,,,,38.915087,121.616504
899,大连沿河街店,合作体验点,辽宁省,大连市,沙河口区,沿河街4-5号雪狐雪具,,,,38.907565,121.594741
839,柏威年购物中心店,合作体验点,辽宁省,大连市,中山区,柏威年购物中心L4051一步空间（酷玩地带）,,,,38.923845,121.635746
424,洪蕾通讯店,合作体验点,辽宁省,丹东市,凤城市,丹东凤城市邓铁梅路二商店洪蕾通讯,,,,40.463086,124.075691
1447,影石Insta360长春万象城授权体验店,授权专卖店,吉林省,长春市,南关区,吉林省长春市南关区人民大街3388号华润置地长春万象城L547,10:00-22:00,13804321983,https://res.insta360.com/static/224aef3f219755c5c88affe399249748/6f02fec193d330d4b5fcbfe61a8aeecd.jpg,43.89,125.33
1531,影石Insta360长春百脑汇照材专卖店,授权专卖店,吉林省,长春市,朝阳区,吉林省长春市朝阳区工农大路百脑汇科技大厦一楼1A05影石专卖店,09：00-18：00,17767791123,https://res.insta360.com/static/018a6bbaf81fdd622a4a3ddfe8117580/DSC01940(1).JPG,43.87,125.31
419,7.8购物广场店,合作体验点,吉林省,长春市,朝阳区,自由大路与同志街交汇7.8购物广场一层（临街必胜客旁）苹果专卖店,,,,43.870162,125.325203
686,雪具授权体验店（长春店）,合作体验点,吉林省,长春市,二道区,北海路会展中心体育场7看台（冷山雪具）,,,,43.844917,125.404383
696,珲春街旗舰店,合作体验点,吉林省,吉林市,船营区,珲春街4号（巅峰户外）,,,,43.844743,126.560475
900,金厂镇雪场店,合作体验点,吉林省,通化市,东昌区,金厂镇万峰滑雪场3栋一层103商铺,,,,41.658242,125.970669
1382,影石Insta360哈尔滨船舶电子大世界照材专卖店,授权专卖店,黑龙江省,哈尔滨市,南岗区,哈尔滨市南岗区南通大街船舶电子大世界西区1层166B（三期半圆门进门沿左边墙直走第四间）,8:30-17:30,13104628851,https://res.insta360.com/static/66dbd6462c6ca6b3a42bfcb7dd54a4f3/%E5%BE%AE%E4%BF%A1%E5%9B%BE%E7%89%87_20250604144931%20(1).jpg,45.78062,126.673163
933,哈尔滨高峨科技开发有限公司,合作体验点,黑龙江省,哈尔滨市,南岗区,松花江街139号教化电子大世界2楼261室,,,,45.753721,126.636944
932,哈尔滨市汇丰照像器材有限公司,合作体验点,黑龙江省,哈尔滨市,南岗区,红军街124号,,,,45.765769,126.642897
1532,影石Insta360大庆百脑汇照材专卖店,授权专卖店,黑龙江省,大庆市,萨尔图区,黑龙江省大庆市萨尔图区东风新村纬七路百脑汇一楼1B10,9:00-17:30,19904861234,https://res.insta360.com/static/3e57a4550293f42ebbf669665ba162a6/458de17248193e9773fccf90a848f28a.jpg,46.6,125.12
1488,影石Insta360上海浦东嘉里城授权体验店,授权专卖店,上海市,市辖区,浦东新区,上海市浦东新区花木路1378号嘉里城B102,10:00-22:00,15502190925,https://res.insta360.com/static/590c12c7e94f677883aa1d87e3751179/img_v3_02r2_de80daa7-0a24-46d1-be6c-4011a5a0202g.jpg,31.22,121.57
1529,影石Insta360上海龙湖宝山天街授权体验店,授权专卖店,上海市,市辖区,宝山区,上海市宝山区顾村镇丹霞山路50弄1号龙湖宝山天街1F-18,10:00-22:00,18738982586,https://res.insta360.com/static/b208986c1b5e02e416416c993c4a35a9/c15797911e6330b97f83ddd3f1e6f563.JPEG,31.36,121.37
1528,影石Insta360上海新天地东台里授权体验店,授权专卖店,上海市,市辖区,黄浦区,上海市黄浦区吉安路111号新天地东台里D-L157,10:00-22:00,17621776156,https://res.insta360.com/static/2df26bb6f206719bcdab743b5884e352/img_v3_02r4_8634039c-3d87-4e87-b5b4-0074b6e1d17g.jpg,31.23,121.49
1527,影石Insta360上海港汇恒隆授权体验店,授权专卖店,上海市,市辖区,徐汇区,上海市徐汇区虹桥路1号港汇恒隆广场4楼409D柜台,10:00-22:00,17601371794,https://res.insta360.com/static/42a06bcd02a160465548eac2a0740809/img_v3_02r4_8eec6885-ba7b-4a48-bc7a-e7fb0f30371g.jpg,31.2,121.44
1482,影石Insta360上海月星环球港授权体验店,授权专卖店,上海市,市辖区,普陀区,上海市普陀区中山北路 3300 号月星环球港 B2101,10:00-22:00,13951876577,https://res.insta360.com/static/8a9fd943caa8c112b5511b53cad99f27/photo_1760424605675.JPEG,31.24,121.42
1213,影石Insta360上海太古汇授权体验店,授权专卖店,上海市,市辖区,静安区,石门一路288号兴业太古汇商场L732号,周一～周日 10:00-22:00,17274616898,https://res.insta360.com/static/26bef34000cb68b4153ec8ec3186b836/20230906-155312.jpeg,31.234489,121.469854
1354,影石Insta360上海世博天地授权体验店,授权专卖店,上海市,市辖区,浦东新区,上钢新村街道世博大道1467号世博天地L109号商铺 19850110502,周一～周日10:00-22:00,19850110502,https://res.insta360.com/static/a9633127e2f872c1463e27d29557bcb5/%E4%B8%8A%E6%B5%B7%E4%B8%96%E5%8D%9A.jpeg,31.190457,121.497715
1348,影石Insta360上海陆家嘴正大广场授权体验店,授权专卖店,上海市,市辖区,浦东新区,陆家嘴西路168号正大广场临2F08+10号,周一～周日10:00-22:00,17278883706,https://res.insta360.com/static/a344c3870237c258450fab58561d721e/20241115-170309.jpeg,31.242497,121.505934
689,影石Insta360上海陆家嘴中心授权体验店,授权专卖店,上海市,市辖区,浦东新区,上海市浦东新区浦东南路899号陆家嘴中心 L+Mall商场LG1层,周一～周日 10:00-22:00,17274637838,https://res.insta360.com/static/0a7033acdd0f1c4810df99e8d2354d41/%E4%B8%8A%E6%B5%B7%E9%99%86%E5%AE%B6%E5%98%B4%E4%B8%AD%E5%BF%83%E6%8E%88%E6%9D%83%E4%B8%93%E5%8D%96%E5%BA%97.jpeg,31.236387,121.52238
1289,影石Insta360上海万象城授权体验店,授权专卖店,上海市,市辖区,闵行区,吴中路1599号万象城购物中心 L540,周一～周日10:00-22:00,18951570987,https://res.insta360.com/static/cdffe5903e70593e5d1544b7a0113522/%E5%BD%B1%E7%9F%B3Insta360%E4%B8%8A%E6%B5%B7%E4%B8%87%E8%B1%A1%E5%9F%8E%E6%8E%88%E6%9D%83%E4%B8%93%E5%8D%96%E5%BA%97.png,31.175767,121.374882
1320,影石Insta360上海合生汇授权体验店,授权专卖店,上海市,市辖区,杨浦区,翔殷路1099号合生国际广场L1-03号商铺影石,周一～周日 10:00-22:00,19521300436,https://res.insta360.com/static/fa49bba980da25bc6185911aa8d268d4/20240726-163901.jpeg,31.305855,121.524713
1341,影石Insta360上海北外滩来福士授权体验店,授权专卖店,上海市,市辖区,虹口区,东大名路999号上海北外滩来福士广场 01层26B号影石Insta360,周一～周日10:00-22:00,17278813595,https://res.insta360.com/static/86b68787205d3b054646ced18348df47/3921731636235_.pic_hd.jpg,31.22232,121.421698
1334,影石Insta360上海长宁来福士授权体验店,授权专卖店,上海市,市辖区,长宁区,长宁路 1123 号 上海长宁来福士广场东区E01层 K03号影石Insta360,周一～周日 10:00-22:00,19539481977,https://res.insta360.com/static/e04b15dd4a8d719457d4519668ed05fd/image.png,31.22232,121.421698
1416,影石Isnta360上海环龙商场照材专卖店,授权专卖店,上海市,市辖区,静安区,上海市静安区秣陵路202号环龙商场一楼1006-1007商铺,10:00-20:00,15021912968,https://res.insta360.com/static/3ed165927b215d20b77893045376cae6/mmexport1752907976680.jpg,31.253695,121.462782
754,影石Insta360上海百脑汇照材专卖店,授权专卖店,上海市,市辖区,徐汇区,漕溪北路339号一楼,周一～周日10:00-21:00,15168406397,https://res.insta360.com/static/6cc689547f79abd61308bc7bb1c43a6e/%E4%B8%8A%E6%B5%B7%E7%99%BE%E8%84%91%E6%B1%87.jpeg,31.19704,121.444653
1565,上海闵行凯德梦之龙照材专卖店,授权专卖店,上海市,市辖区,闵行区,上海市闵行区沪闵路6088号凯德闵行商业中心一层48C号影石Insta360专卖店,10：00-22：00,15168406397,https://res.insta360.com/static/838f78f79082a2cf65b47a2707a7f6ab/20251031-113739.jpeg,31.108154,121.37776
1430,影石Insta360上海星光摄影城照材专卖店,授权专卖店,上海市,市辖区,黄浦区,鲁班路300号星光摄影器材城A区132室影石Insta 360专卖店,周一～周日09:00-19:00,13052083193,https://res.insta360.com/static/4e67aad72c11997e90220730ea346706/%E5%9B%BE%E7%89%871.png,31.21,121.48
802,上海展厅,合作体验点,上海市,市辖区,黄浦区,上海市南昌路45号城汇大厦10层（佳能）,,,,31.2247,121.477012
1050,上海星光阳华摄影器材行,合作体验点,上海市,市辖区,黄浦区,鲁班路300号A区319,,,https://res.insta360.com/static/4e3a16114b82a90ed56406d8e71f1e40/%E4%B8%8A%E6%B5%B7%E6%98%9F%E5%85%89%E9%98%B3%E5%8D%8E%E6%91%84%E5%BD%B1%E5%99%A8%E6%9D%90%E8%A1%8C.png,31.209148,121.481095
1249,上海新尚数码售点,合作体验点,上海市,市辖区,黄浦区,淮海东路99号新尚数码1楼A6,,,,31.231194,121.487633
693,上海兴业太古汇L375店,合作体验点,上海市,市辖区,静安区,石门一路288号兴业太古汇商场L375（SNOW51滑雪场）,,,,31.234489,121.469854
523,顺电（上海嘉里城店）,合作体验点,上海市,市辖区,浦东新区,花木路1378号地下一层B101（顺电）,,,,31.218812,121.570416
694,上海外滩BFC店,合作体验点,上海市,市辖区,黄浦区,中山东二路588号2层S212单元（SNOW51室内滑雪场）,,,,31.23119,121.504795
525,上海尚嘉店,合作体验点,上海市,市辖区,长宁区,仙霞路99号尚嘉中心地下一层L116-117单元（顺电）,,,,31.211732,121.413677
524,上海浦东南路店,合作体验点,上海市,市辖区,浦东新区,浦东南路899号陆家嘴中心LG·19-20店铺（顺电）,,,,31.1883,121.507829
1298,上海欧川星光店,合作体验点,上海市,市辖区,黄浦区,鲁班路300号星光摄影器材城A区一楼24-25号,,,,31.20946,121.481079
526,上海长宁店,合作体验点,上海市,市辖区,静安区,大宁路与共和新路交汇处L12(大宁久光)（顺电）,,,,31.280328,121.458756
1321,影石Insta360南京德基授权体验店,直营店,江苏省,南京市,玄武区,中山路18 号德基广场六层 F612 号商铺,周一～周日10:30-22:30,18061292910,https://res.insta360.com/static/78eabc506d32e77a220b73736dab4cd1/20240805-101219.jpeg,32.050325,118.791625
1410,影石Insta360南京金陵天地授权体验店,授权专卖店,江苏省,南京市,建邺区,南京市建邺区中和路68号金陵天地 L1 层 L156 铺位,10:00-21:00,17768382981,https://res.insta360.com/static/6011fc14cd2b03a403b4f9ef5ec3f9d0/image-5.png,31.981022,118.720638
1406,影石Insta360南京桥北弘阳广场授权体验店,授权专卖店,江苏省,南京市,浦口区,江苏省南京市弘阳广场大桥北路48号B1区-1F-28号,10:00-22:00,18912974413,https://res.insta360.com/static/beb144875643a2ddbb49bea4c47068c5/image.png,32.142399,118.732665
1474,影石Insta360南京仙林金鹰授权体验店,授权专卖店,江苏省,南京市,栖霞区,江苏省南京市栖霞区仙林街道学海路1号仙林金鹰HB01-F1111,10:00-22:00,17372762791,https://res.insta360.com/static/a6acf56a68fb5bf9c8e6c8eb8174aa3d/img_v3_02pg_c93bd72a-a389-493d-a9cc-cd8bf443aceg.jpg,32.11,118.93
1331,影石Insta360南京景枫授权体验店,授权专卖店,江苏省,南京市,江宁区,双龙大道1698号景枫中心F125-5,周一～周日10:00-22:00,18851949294,https://res.insta360.com/static/7f507d654b29359f3c3f1da3cef2af3f/20240829-165902.jpeg,31.936053,118.82668
1514,影石Insta360南京华海3C照材专卖店,授权专卖店,江苏省,南京市,玄武区,江苏省南京市玄武区珠江路435号华海大厦,10:00-20:00,13382056018,,32.06,118.8
1274,M会员店（南京）,合作体验点,江苏省,南京市,建邺区,江苏省南京市建邺区南苑街道应天大街866号,,,,32.02727,118.750254
1250,南京艺风授权体验点,合作体验点,江苏省,南京市,玄武区,珠江路333号百脑汇1楼1C10 ,,,,32.055633,118.799933
1293,影石Insta360 无锡万象城授权体验店,授权专卖店,江苏省,无锡市,滨湖区,金石路88号万象城一楼L1 73-74 ,周一～周日9:30-21:30,18115365881,https://res.insta360.com/static/81a3d5dee4593848ffbf25e86f8c843b/%E6%88%AA%E5%B1%8F2025-10-16%2011.19.30.png,31.519452,120.28914
1367,影石Insta360无锡百脑汇照材专卖店,授权专卖店,江苏省,无锡市,梁溪区,人民西路百脑汇一楼1C12、1C14,周一～周日9:30-17:30,18020506090,https://res.insta360.com/static/1095336b92ab0ae797096299951d113f/20250225-141001.jpeg,31.580364,120.297223
1251,影石Insta360无锡维络格授权体验点,合作体验点,江苏省,无锡市,梁溪区,人民西路25号百脑汇2B09,,,,31.580359,120.296953
1490,影石Insta360徐州苏宁授权体验店,授权专卖店,江苏省,徐州市,鼓楼区,江苏省徐州市鼓楼区淮海东路29号徐州苏宁广场131b,10:00-22:00,17712122284,https://res.insta360.com/static/106dd916fd7edf99594c3e700b1d2f7f/mmexport1757998557044.jpg,34.27,117.2
1534,影石Insta360徐州中山南路格派照材专卖店,授权专卖店,江苏省,徐州市,泉山区,江苏省徐州市中山南路98号佳能专卖店(鸿姐火锅楼下),10:00-20:00,15252035203,,34.26,117.19
1582,影石Insta360常州武进吾悦授权体验店,授权专卖店,江苏省,常州市,武进区,江苏省常州市武进区湖塘镇武宜北路19号吾悦广场1层1046号商铺,周日-周四10：00-21：30；周五-周六10：00-22：00,18052719285,https://res.insta360.com/static/f5a76d32f876951cfba8851f148b42ef/20251112-115519.jpg,31.73,119.95
1306,影石Insta360常州万象城授权体验店,授权专卖店,江苏省,常州市,天宁区,离宫路329号华润国际花园100 幢常州万象城1号门外街L114a ,周一～周日10:00-21:30,15312563235,https://res.insta360.com/static/e42cad0d3dce95d86a88db7c0692c168/20240530-100502.jpeg,29.521547,106.524418
1273,M会员店,合作体验点,江苏省,常州市,天宁区,江苏省常州市天宁区兰陵北路301号,,,,31.755399,119.952016
1246,常州卓图数码影像有限公司,合作体验点,江苏省,常州市,天宁区,劳动西路银河湾电脑城1B44,,,,31.770263,119.96426
1499,影石Insta360苏州中心授权体验店,授权专卖店,江苏省,苏州市,苏州工业园区,江苏省苏州市工业园区苏州中心商场北区B1层(A）B1-54,10:00-22:00 ,18068055829,https://res.insta360.com/static/7338bc356540ee35c05836c0419b67f8/a9026a9569d53e5148c2b7da4aa111fb_compress.jpg,31.32,120.68
1537,影石Insta360苏州昆山万象汇授权体验店,授权专卖店,江苏省,苏州市,昆山市,江苏省昆山市玉山镇万象路 昆山万象汇外街 S175a （窖滚旁边）,10:00-21:30,18051880656,https://res.insta360.com/static/6ee021b0eba0b9bb600954b72f1cc366/882cac2deb236012889aeff533d6590.jpg,31.39,120.93
1336,影石Insta360苏州吴江万象汇授权体验店,授权专卖店,江苏省,苏州市,吴江区,松陵街道秋枫街吴江万象汇L176,周一～周日10:00-22:00,13390837059,https://res.insta360.com/static/0d39eed6a8243e615dd618185f9a8a24/sail%202024-09-09%2018.01.13.jpeg,31.142355,120.625604
1366,影石Insta360昆山万象汇授权体验店,授权专卖店,江苏省,苏州市,昆山市,玉山镇万象路昆山万象汇外街S175A,,18061696251,https://res.insta360.com/static/62153e34fcf86c5ba7a208fd4c901e9f/20250225-140210.jpeg,31.387479,120.93379
1467,影石Insta360苏州泰华数码天地照材专卖店,授权专卖店,江苏省,苏州市,姑苏区,江苏省苏州姑苏区人民路372号1b10,09:00-21:00,18014899816,https://res.insta360.com/static/d1fbf98b3ee9eaa58f010c9ec846b7c5/IMG_0766.JPG,31.3,120.63
1429,影石Insta360昆山商厦家电市场照材专卖店,授权专卖店,江苏省,苏州市,昆山市,江苏省苏州市昆山市玉山镇人民南路96-2A昆山商厦家电生活广场一楼,9：30-21：00,15655136545,https://res.insta360.com/static/1e3659df30190bdaab0b1d6bd6c75bc1/8c6b544fe4485eae344ba12a49e04d8.png,31.38,120.96
1368,苏摄影像,授权专卖店,江苏省,苏州市,姑苏区,干将西路91号,,,https://res.insta360.com/static/b23be927965fa8092e4c09c25fc9aa49/WPS%E5%9B%BE%E7%89%87(1).png,31.311741,120.625949
1369,XTJOY苏州仁恒仓街店,合作体验点,江苏省,苏州市,姑苏区,江苏省苏州市姑苏区仓街1号第LG1层145号商铺XTJOY,,,https://res.insta360.com/static/9a48fc4f78e51e9613def342ee91723c/WPS%E5%9B%BE%E7%89%87(1).png,31.31819,120.646038
527,时代广场店,合作体验点,江苏省,苏州市,苏州工业园区,旺敦路圆融时代广场7栋（顺电）,,,,31.325951,120.717856
528,苏州东吴天街分店,合作体验点,江苏省,苏州市,吴中区,东吴南路179号龙湖东吴天街A-2F-06（顺电）,,,,31.260391,120.635457
530,苏州欧尚店,合作体验点,江苏省,苏州市,苏州工业园区,中心大道西181号1栋1033号（顺电）,,,,31.31223,120.679584
529,苏州龙湖狮山分店,合作体验点,江苏省,苏州市,虎丘区,塔园路181号龙湖狮山天街四期B178（顺电）,,,,31.299513,120.561992
1526,影石Insta360淮安万象城授权体验店,授权专卖店,江苏省,淮安市,清江浦区,江苏省淮安市清江浦区翔宇中道170号淮安万象城 L111 影石insta 360,10:00-21:30,19105281600,https://res.insta360.com/static/0d7790d72d3ed34713fd32a209855c9a/img_v3_02r4_a2cbee0a-c7cd-427d-b1da-0cecddd3e67g.jpg,33.61,119.05
1247,清江浦区航摄数码经营部,合作体验点,江苏省,淮安市,清江浦区,淮安市清浦区淮海北路苏宁生活广场104号,,,,33.597083,119.025785
1491,影石Insta360扬州万象汇授权体验店,授权专卖店,江苏省,扬州市,邗江区,江苏省扬州市邗江区文昌中路 606 号 扬州万象汇L0139N,10:00-22:00,19975077153,https://res.insta360.com/static/d3db2ad1f3cd408639965c648a42e253/Luban_1758099768326cf058ce9-9a21-4b96-a3dd-a85970f8acae.jpeg,32.4,119.43
1023,大润发M会员店,合作体验点,江苏省,扬州市,邗江区,江阳中路425号,,,,32.39697,119.40252
1371,盛荣时光印象摄影沙龙,合作体验点,江苏省,扬州市,广陵区,文昌中路273号,,19941743801,https://res.insta360.com/static/31af5c2112f85eb9d156f01a8e7cd4b7/WPS%E5%9B%BE%E7%89%87(1).jpeg,32.400476,119.453529
1254,镇江仲佳数码体验店,合作体验点,江苏省,镇江市,京口区,解放路72号小仲数码俱乐部,,,,32.207263,119.461822
1509,影石Insta360泰州万象城授权体验店,授权专卖店,江苏省,泰州市,泰州医药高新技术产业开发区,江苏省泰州市医药高新区永定东路399号泰州万象城C122,周日-周四营业时间：10：00-21：30，周五周六：10：00-22：00,18115232316,https://res.insta360.com/static/7275c6e82c1964556589987a334f887d/b4342d655c8822618b93b39922fd7acd_compress.jpg,32.45,119.93
1256,宿迁得添数码Insta360授权体验店,合作体验点,江苏省,宿迁市,宿城区,江苏省宿迁市宿城区发展大道88号新华数码广场3号,,,,33.958678,118.285806
1391,影石Insta360杭州西溪天街授权体验店,授权专卖店,浙江省,杭州市,西湖区,浙江省杭州市西湖区余杭塘路1001号西溪龙湖天街1楼,10:00-22:00,19032585733,https://res.insta360.com/static/4e8c81d73267cb657dd3f565900672fc/%E5%BE%AE%E4%BF%A1%E5%9B%BE%E7%89%87_2025-06-20_161928_763.jpg,30.298917,120.074831
1324,影石Insta360杭州万象城授权体验店,授权专卖店,浙江省,杭州市,上城区,浙江省杭州市上城区富春路701号杭州万象城B1SC16号商铺,周一～周日10:00-22:00,19032589733,https://res.insta360.com/static/1f512fb098d77e9c6ec89e6e481ea844/%E5%BE%AE%E4%BF%A1%E5%9B%BE%E7%89%87_20240812120248.jpg,30.254400999999998,120.21418599999993
1580,影石Insta360杭州萧山万象汇授权体验店,授权专卖店,浙江省,杭州市,萧山区,浙江省杭州市萧山区北干街道金城路927号华润万象汇B1S05影石Insta360,10:00-22:00,18967190850,https://res.insta360.com/static/f7452c18c9195e4d1dfeb370ada27762/%E8%90%A7%E5%B1%B1%E4%B8%87%E8%B1%A1%E6%B1%871.jpg,30.19,120.28
1564,影石Insta360绍兴银泰授权体验店,授权专卖店,浙江省,杭州市,西湖区,杭州市西湖区黄姑山路29号颐高旗舰大厦A座1302,10∶00—22∶00,17398010377,https://res.insta360.com/static/60269813a445451529324055e60e385e/img_v3_02rg_6fbebb24-c983-497e-a771-0c68599fe37g.jpg,30.28,120.14
1498,影石Insta360杭州亚奥万象天地授权体验店,授权专卖店,浙江省,杭州市,萧山区,浙江省杭州市萧山区盈丰街道亚奥城  杭州亚奥万象天地L111 商铺影石Insta 360,10∶00—22∶00,17328896877,https://res.insta360.com/static/794e89fbbf53d14225684d53b0b59878/be30b5537a40e7a1110c31e14cb705cc.jpg,30.26,120.25
1398,影石Insta360杭州IN77授权体验店,授权专卖店,浙江省,杭州市,上城区,浙江省杭州市上城区延安路238号杭州湖滨银泰in77 C1区B1层,10:00-22:00,18967196182,https://res.insta360.com/static/118ae2e31c1395cce803aebbfbfbe740/7758db215301f3101cf5b9e370c0c0c0.jpg,30.259954,120.171246
1342,影石Insta360杭州百脑汇照材专卖店,授权专卖店,浙江省,杭州市,西湖区,教工路23号百脑汇科技大厦一楼1B12,周一～周日9:00-18:00,13165999212,https://res.insta360.com/static/d7cb27bcbe088a4f394f6ca575a380f6/%E6%9D%AD%E5%B7%9E%E7%99%BE%E8%84%91%E6%B1%87.jpeg,30.28183,120.139589
1440,影石Insta360杭州滨江天街授权体验店,授权专卖店,浙江省,杭州市,滨江区,浙江省杭州市滨江区江汉路1515号(江汉路地铁站D口旁)滨江龙湖天街 1 楼,10:00—22:00,18158717205,https://res.insta360.com/static/9cc51e302944207434225d99ca5b91bf/img_v3_02p9_fbc59f13-3c65-4d97-84bc-a2ac3cf2eb4g.jpg,30.21,120.21
1433,影石Insta360杭州学院路照材专卖店,授权专卖店,浙江省,杭州市,西湖区,浙江省杭州市西湖区翠苑街道学院路82号,9:00-21:00,19065683089,https://res.insta360.com/static/29326f6ce595fdf617f0aed3973fb0eb/image.png,30.28,120.14
1426,影石Insta360杭州拱墅区悦街照材售点,合作体验点,浙江省,杭州市,拱墅区,浙江省杭州市拱墅区大悦城T202（T2商业电梯厅2楼）,10:00-22:00,15001897964,https://res.insta360.com/static/847325659ae0a64df28655886d1dacbc/c0f3f183de6828b4acb79dea3a52e72.jpg,30.31,120.14
1318,杭州颖顺器材照材店,合作体验点,浙江省,杭州市,拱墅区,大悦城月亮路印悦201SONY索尼,,18258231127,https://res.insta360.com/static/b0772dd7cb3922372f625cc97c7fc63e/%E5%9B%BE%E7%89%871.png,30.306833,120.137272
1005,风影数码东部店,合作体验点,浙江省,杭州市,上城区,秋涛北路128号东部数码城一楼沿街商铺1A02风影数码,,,https://res.insta360.com/static/43f8d29676a15ddb2aed58daa781ed59/%E9%A3%8E%E5%BD%B1%E6%95%B0%E7%A0%81.png,30.274306,120.20734
1370,杭州橘子数码,合作体验点,浙江省,杭州市,西湖区,浙江省杭州市西湖区黄姑山路29号颐高广场A座3楼3029,,,https://res.insta360.com/static/338a474d5e348a668e0385018e6fa445/WPS%E5%9B%BE%E7%89%87(1).png,30.28168,120.139094
1003,杭州启邦授权店,合作体验点,浙江省,杭州市,余杭区,良渚街道网周路99号3幢5层506室,,,,30.369411,120.066363
1343,影石Insta360宁波万象城授权体验店,授权专卖店,浙江省,宁波市,江北区,清河路 265 号万象城购物中心L224铺位,周一～周日10:00-22:00,19157602877,https://res.insta360.com/static/6017c45c2747c89b660a12c6c84f4d7b/914ea2f53f42cb5177f0ad5f9c970d99.jpg,29.904181,121.558048
1518,宁波明州里授权专卖店,授权专卖店,浙江省,宁波市,鄞州区,浙江省宁波市鄞州区钟公庙街道明州里商场一楼1029A,10:00-22:00,18868933339,https://res.insta360.com/static/19b8512cc35a73d02e126698321405e1/a7885de680593a4b74c5866f1fb53c07.png,29.83,121.55
1024,开市客宁波店,合作体验点,浙江省,宁波市,鄞州区,下应街道首南东路与启明南路交叉口东南角,,,,29.80378,121.60889
1506,影石Insta360温州万象城授权体验店,授权专卖店,浙江省,温州市,瓯海区,浙江省温州市瓯海区瓯海大道1999号温州万象城 5楼 L515A,10∶00-22∶00,19957016377,https://res.insta360.com/static/6ba3ce250b3e33902ae513817d4dc3d5/1dc71b5092481d54965bdf71c5ef0543.jpg,27.96,120.69
1457,影石Insta360温州滨江万象城授权体验店,授权专卖店,浙江省,温州市,鹿城区,浙江省温州市鹿城区瓯江路3999号温州滨江万象城L165a,10:00-22:00,19106782077,https://res.insta360.com/static/ef9f8f8aa5bb8541cbe75470a4bea80e/a29685db29fa2c2e6fd7ce51c9664bed.jpg,28.02,120.72
1329,温州青青数码,合作体验点,浙江省,温州市,鹿城区,温州市鹿城区人民路中民市场a11-12,,18958785888,https://res.insta360.com/static/f59b480c51ab277695cfccd468bef336/%E6%88%AA%E5%B1%8F2024-08-28%2017.56.47.png,28.017138,120.671745
1275,嘉善奇点数码产品经营部,合作体验点,浙江省,嘉兴市,嘉善县,魏塘街道老县府路177－1号,,,,30.848817,120.919837
817,嘉兴八佰伴店,合作体验点,浙江省,嘉兴市,南湖区,中山路1360号嘉兴八佰伴购物中心L1036-37A（恒州）,,,,30.764807,120.738509
1481,影石Insta360浙江金华永盛授权体验店,授权专卖店,浙江省,金华市,婺城区,浙江省金华市新华街67号永盛购物广场1楼53号商铺,10∶00—22∶00,17376589677,https://res.insta360.com/static/bff26c604788ff7ffda3fccf033edfd7/fa884936fa0772ee0def98eda148bf4e.jpg,29.11,119.66
1277,毅光年影像椒江店,合作体验点,浙江省,台州市,椒江区,广场南路573号（海湾浪琴西）,,,,28.650245,121.423021
1276,毅光年影像路桥数码城店,合作体验点,浙江省,台州市,路桥区,电子数码城3楼3509号（E7柱子）,,,,28.596406,121.37607
1581,影石Insta360合肥万象城授权体验店,授权专卖店,安徽省,合肥市,蜀山区,安徽省合肥市蜀山区潜山路111号合肥万象城L0506A,10：00-22：00,18355728757,https://res.insta360.com/static/e1ff14dc758f1fd6722b9ca1c6a5e13c/%E5%90%88%E8%82%A5%E4%B8%87%E8%B1%A1%E5%9F%8E.jpg,31.81,117.24
1583,影石Insta360合肥包河万象汇授权体验店,授权专卖店,安徽省,合肥市,包河区,合肥市包河区包河大道和龙川路交叉口包河万象汇D107影石Insta360,10：00-22：00,18756967829,https://res.insta360.com/static/8106bd9ceecf3231a02e717434926c3c/20251112-115800.jpg,31.81,117.31
1414,影石Insta360合肥百脑汇照材专卖店,授权专卖店,安徽省,合肥市,包河区,合肥市包河区金寨路162号百脑汇2楼2A16,09:00-18:00,18018685758,https://res.insta360.com/static/49010e3b523fe8d8e1d1632054b52fd5/mmexport1753694865961.jpg,31.845049,117.272217
1389,合肥儒佳影石授权体验专区,合作体验点,安徽省,合肥市,包河区,安徽省合肥市包河区中国科学技术大学高科技广场南二区10-12号,,13645601775,,31.842064,117.272265
1393,合肥美好数码影视器材,合作体验点,安徽省,合肥市,蜀山区,安徽省合肥市蜀山区赛博数码广场一楼152号,18056090910,,https://res.insta360.com/static/a3d34ce0f6c85ce19e5b1ff0752a7e4a/WPS%E5%9B%BE%E7%89%8720250625163508.png,31.847236,117.272827
1327,合肥万象城Brompton Loop,合作体验点,安徽省,合肥市,蜀山区,荷叶地街道潜山路111号万象城1楼Loop 自行车店L140a号,,19315289052,https://res.insta360.com/static/abc2ada9934c0f350e219bf9d4ec33ba/%E6%88%AA%E5%B1%8F2024-08-19%2011.46.15.png,31.805396,117.237586
1258,创新未来智能科技Insta360授权店,合作体验点,安徽省,阜阳市,颍泉区,颖河西路东方数码广场2楼D2005佳能,,,,32.904763,115.828994
1400,影石Insta360福州万象城授权体验店,授权专卖店,福建省,福州市,鼓楼区,福州市鼓楼区洪山园路5号华润万象城购物广场5楼L509,10:00-22:00,18159082923,https://res.insta360.com/static/2a8181823b24c1142652bc12e88e9621/image-3.png,26.08122,119.283446
1411,影石Insta360福州东二泰禾授权体验店,授权专卖店,福建省,福州市,晋安区,福建省福州市晋安区东二环泰禾广场一楼L126-1,10:00-22:00,19906938512,https://res.insta360.com/static/d13394094b6dedb0c824d0014155fc08/d863fbee0f7ed82104b89925ebe45858.jpg,26.095913,119.343648
1578,影石Insta360福州烟台山授权体验店,授权专卖店,福建省,福州市,仓山区,福建省福州仓山区仓前街道仓前路 7 号,9:30-22:30,18959085930,https://res.insta360.com/static/607e93b81d38185bfcdcc7302f9d23ac/%E7%A6%8F%E5%B7%9E%E7%83%9F%E5%8F%B0%E5%B1%B1%E6%8E%88%E6%9D%83%E4%BD%93%E9%AA%8C%E5%BA%97.jpg,26.05,119.32
1387,福州茗航毅站,合作体验点,福建省,福州市,台江区,福建省福州市台江区白马南路63号  ,,18150799246,,26.056201,119.307559
1402,影石Insta360厦门SM授权体验店,授权专卖店,福建省,厦门市,湖里区,厦门市湖里区嘉禾路468号SM广场一楼中庭KK102,10:00-22:00,18050237915,https://res.insta360.com/static/bb62b0b74c43c6802ab7ecbc0b848212/141751515760_.pic.jpg,24.506704,118.133494
1441,影石Insta360厦门大悦城授权体验店,授权专卖店,福建省,厦门市,集美区,福建省厦门市集美区厦门大悦城1F-D01,10:00-22:00,18965510135,https://res.insta360.com/static/3b8ec96474048a90b8a63a5df37f09bc/IMG_8092.JPEG,24.6,118.06
1051,厦门百脑汇圣耀影视器材,合作体验点,福建省,厦门市,思明区,湖滨南路76号百脑汇一楼1F21店铺,,,https://res.insta360.com/static/03db7915f74bd544b3212eaed55f90df/20240911-094457.jpeg,24.474454,118.097665
1401,影石Insta360泉州浦西万达授权体验店,授权专卖店,福建省,泉州市,丰泽区,福建省泉州市丰泽区宝洲路679号浦西万达广场1楼1030-AA,10:00-22:00,18060561060,https://res.insta360.com/static/f4bfcc71feac94c4134887f423222931/image-2.png,24.888198,118.605603
1489,影石Insta360福建龙岩万宝授权体验店,授权专卖店,福建省,龙岩市,新罗区,福建省龙岩市新罗区龙岩万宝广场新3号门旁边1001铺,10:00—22:00,18959031282,https://res.insta360.com/static/5b430746cc517a78e75b5db90e93e095/IMG_20250913_114130.jpg,25.09,117.03
1483,影石Insta360南昌万象城授权体验店,授权专卖店,江西省,南昌市,红谷滩区,南昌市红谷滩区学府大道388号南昌万象城B110,10:00-22:00,19917928376,https://res.insta360.com/static/9e58661dc67afb1d8c2abc6adef48e45/fc283d553e5273fa571c8386f8d5560d_origin.jpg,28.66,115.85
1579,影石Insta360南昌铜锣湾商场授权体验店,授权专卖店,江西省,南昌市,红谷滩区,江西省南昌市红谷滩新区庐山南大道369号南昌铜锣湾广场1F L1-D08,10：00-22：00,19044575951,https://res.insta360.com/static/b160a8422770f1a8cafec1beb77968b1/%E5%8D%97%E6%98%8C%E9%93%9C%E9%94%A3%E6%B9%BE1.jpg,28.71,115.87
1431,影石Insta360南昌和昌里街区授权专卖店,授权专卖店,江西省,南昌市,红谷滩区,江西省南昌市红谷滩区会展路888号和昌里1层024铺insta影石专卖店（地铁4号口） 黄语欢,10:00-22:00,18679156781,https://res.insta360.com/static/910630582e0ab34da1466372e3ea8d91/IMG_4313.JPEG,28.69646,115.854758
1388,云逸贸易有限公司,合作体验点,江西省,南昌市,红谷滩区,江西省南昌市红谷滩区学府大道388号南昌万象城4楼481店铺,,19079192070,,28.661002,115.854094
1319,京东之家(南昌王府井店),合作体验点,江西省,南昌市,青云谱区,洪城路158号王府井购物中心二楼023,,13407913078,https://res.insta360.com/static/a3db0a75c010dbc13f701513af10a7f2/%E5%9B%BE%E7%89%8712.png,28.659398,115.910811
1432,影石Insta360赣州泽丰环球汇授权专区,授权专卖店,江西省,赣州市,章贡区,江西省赣州市章贡区泽丰环球汇2号门门口一楼,,13117520561,,25.83,114.95
1524,影石Insta360江西赣州京东授权专区,合作体验点,江西省,赣州市,章贡区,江西省赣州市章贡区水南镇泽丰环球汇负一楼京东家电,10:00-22:00,13117520561,https://res.insta360.com/static/8755f3dd029dedb64cbe0c9959ff5766/Luban_1752236679841e6c27c64-3c35-4cb8-9c0e-49b3cb09a125.jpeg,25.83,114.95
1428,影石Insta济南华强电子科技照材专卖店,授权专卖店,山东省,济南市,历下区,山东省济南市历下区157号华强电子世界二层Q2015A铺位,9:00-18:00,13210541165,https://res.insta360.com/static/a33e1b81de9b5a4641f8f04d9539c69c/IMG_20250806_093038.jpg,36.67,117.06
1362,济南晶彩数码科技照材店,合作体验点,山东省,济南市,历下区,山大路178号银座数码广场一层C-15,,18653186550,https://res.insta360.com/static/24b07911826545c86ac87da4116ea35e/%E6%B5%8E%E5%8D%97%E6%99%B6%E5%BD%A9%E6%95%B0%E7%A0%81%E7%A7%91%E6%8A%80%E6%9C%89%E9%99%90%E5%85%AC%E5%8F%B8.png,36.672918,117.062972
1239,济南悦杨体验店,合作体验点,山东省,济南市,历下区,解放路43号赛博数码广场1楼A07号索尼专卖店 ,,,,36.672719,117.063491
1242,济南浩瀚体验店,合作体验点,山东省,济南市,历下区,山大路178号赛博数码广场2楼2121,,,,36.672823,117.063121
1245,济南亘富沓来商贸照材店,合作体验点,山东省,济南市,历下区,山大路157号华强电子世界2楼Q2082,,,,36.673104,117.061844
1241,青山摄影体验店,合作体验点,山东省,济南市,天桥区,标山南路12号,,,,36.700632,117.005185
1469,影石Insta360青岛海信广场授权体验店,授权专卖店,山东省,青岛市,市南区,山东省青岛市澳门路117号海信广场2期LG层0303,10:00-22:00,16653221285,https://res.insta360.com/static/4895152994a2a1a613032b94774edaf9/50612e580e9952580387bf8d561e0685.JPEG,36.07,120.4
1571,影石Insta360青岛凯德MALL授权体验店,授权专卖店,山东省,青岛市,市北区,山东省青岛市市北区黑龙江南路18号凯德mall新都心01层15号,10:00-22:00,13730949877,https://res.insta360.com/static/3261b3800efdb97bc0e7962f776ce658/20251104-182749.jpg,36.12,120.4
1502,影石Insta360青岛崂山万象汇授权体验店,授权专卖店,山东省,青岛市,崂山区,山东省青岛市崂山区深圳路与辽阳东路交汇崂山万象汇L109A,18100375560,18100375560,https://res.insta360.com/static/e686342317178482d2db2613c29ddb48/%E5%BE%AE%E4%BF%A1%E5%9B%BE%E7%89%87_20251014160657_32_49.jpg,36.12,120.45
1418,影石Insta360青岛百脑汇照材专卖店,授权专卖店,山东省,青岛市,市北区,山东省青岛市市北区辽宁路百脑汇1楼1E08,9:00-18:00,15253257181,https://res.insta360.com/static/985c7e366e1a38b524d195696b0603cc/Screenshot_20250709_121549_WeChat.jpg,36.089846,120.339906
1244,青岛信鹏轩照材店,合作体验点,山东省,青岛市,市北区,辽宁路147号1c05,,,,36.089738,120.34015
1572,影石Insta360烟台振华商厦授权体验店,授权专卖店,山东省,烟台市,芝罘区,山东省烟台市芝罘区西大街18号振华精品商厦1F-B01-2,10:00-22:00,15684080488,https://res.insta360.com/static/685a4990c57dfb0ae1f371b7f6c56d66/20251104-182926.jpg,37.55,121.39
1361,烟台菲林电子科技照材店,合作体验点,山东省,烟台市,芝罘区,芝罘屯路11号联民众诚数码广场C0A1,,13506454610,https://res.insta360.com/static/b09e7244a2f0d1511a47a233b61b8c45/%E7%83%9F%E5%8F%B0%E8%8F%B2%E6%9E%97%E7%94%B5%E5%AD%90%E7%A7%91%E6%8A%80%E6%9C%89%E9%99%90%E5%85%AC%E5%8F%B8.png,37.555947,121.380488
1360,潍坊羽中照材店,合作体验点,山东省,潍坊市,潍城区,南关街道青年路威尼斯2F62,,15336363466,https://res.insta360.com/static/e3072da7e83636932d9a16824926c413/%E5%9B%BE%E7%89%871.png,36.711568,119.117351
1462, 影石Insta360潍坊益家园照材专卖店,授权专卖店,山东省,潍坊市,潍城区,北宫西街3687号6号楼益家园家电家居MALL潍城店,9:30-20:00,18353620560,https://res.insta360.com/static/96c14ddc9d10c9d5c0cf4f07201a8e42/IMG_20250929_125027.jpg,36.74,119.08
1438,青州市友乐影视器材有限公司,合作体验点,山东省,潍坊市,青州市,山东省青州市尧王山东路399号国泰科技城友乐数码,,,,36.7,118.49
1562,影石Insta360济宁万象汇授权体验店,授权专卖店,山东省,济宁市,济宁高新技术产业开发区,山东省济宁市高新区柳行街道海川路77号济宁万象汇L135,周一至周四营业时间：10：00-21：30，周五周六周日：10：00-22：00,15318418366,https://res.insta360.com/static/0129570445e5b96974f4f054821a0e26/%E6%B5%8E%E5%AE%81%E4%B8%87%E8%B1%A1%E6%B1%87%E5%BD%B1%E7%9F%B3Insta360.jpg,35.42,116.71
1519,影石Insta360泰安三源照材专卖店,授权专卖店,山东省,泰安市,泰山区,山东省泰安市泰山区财源大街107号三源家电1楼,9:00-19:00,18661314123,https://res.insta360.com/static/42cd85cad6ef5ebe9d1247a15a7ed93e/MVIMG_20250911_183150.jpg,36.19,117.13
1344,日照新索照材店,合作体验点,山东省,日照市,东港区,北京路王府大街C1-1-3号,,,,35.417611,119.528546
1365,兰山区天鸿摄影器材商行,合作体验点,山东省,临沂市,兰山区,通达路百脑汇数码广场一楼135号,,13954919001,https://res.insta360.com/static/dc796f95d8d44efb7a5d577a859710c9/%E5%85%B0%E5%B1%B1%E5%8C%BA%E5%A4%A9%E9%B8%BF%E6%91%84%E5%BD%B1%E5%99%A8%E6%9D%90%E5%95%86%E8%A1%8C.png,35.086374,118.333133
1396,影石Insta360郑州东万象城授权体验店,授权专卖店,河南省,郑州市,金水区,祥盛街东风南路交叉口西南100米郑东万象城南区一楼CL103,10:00-22:00,18638546739,https://res.insta360.com/static/5c0b3f5382c71d7484cb2b3879e6c135/mmexport1751080544725.jpg,34.770962,113.772439
1470,影石Insta360郑州探十里授权体验店,授权专卖店,河南省,郑州市,中原区,河南省郑州市陇海路桐柏路探十里1楼影石Insta360,10：00-22：00,15515815705,https://res.insta360.com/static/4c7746300e48dd25fc010f7e8a7968e5/9ec66b1fecb1a6190b2fde84bb374f33.jpg,34.74,113.62
1307,影石Insta360郑州大卫城授权体验店,授权专卖店,河南省,郑州市,金水区,西太康路和二七路交叉路口丹尼斯大卫城MALL6F层M048号,周一～周日10:00-22:00,15515681920,https://res.insta360.com/static/d9c6b78fda82697c35aa025aa7403af7/20240604-094646.jpeg,34.764044,113.672469
1476,影石Insta360郑州正弘城授权体验店,授权专卖店,河南省,郑州市,金水区,河南省郑州市金水区东风路正弘城负1楼花园里LB-M14,10:00-22:00,13598605739,https://res.insta360.com/static/05e0dceb224fbd05727028fba24bda5d/img_v3_02ot_388e87e6-a460-49cf-8781-280b21b29e6g.webp,34.8,113.69
1439,影石Insta360郑州信万广场授权专卖店,授权专卖店,河南省,郑州市,金水区,河南省郑州市金水区国基路丰庆路信万广场一楼A1012,09:30-22:00,15137199413,https://res.insta360.com/static/5455bcb5c5448a07e7a7bd6e717d6328/9b00c0107fde3ce037487420b391dfd2.jpg,34.83,113.65
1538,影石Insta360郑州赛博数码港照材专卖店,授权专卖店,河南省,郑州市,金水区,河南省郑州市金水区赛博数码港一楼M111,9:00-19:00,15238015211,https://res.insta360.com/static/052e8c81925fd01ba9ea4e4bf33a662b/photo_1756537127386.JPEG,34.81,113.67
1417,影石Insta360郑州智汇城照材专卖店,授权专卖店,河南省,郑州市,金水区,河南省郑州市金水区文博西路与东风路交叉口智汇城内场一楼西北门C1000-1,9:00-18:30,13683817031,https://res.insta360.com/static/bd5505ed31aaeb9fa36667ccdf276955/%E6%99%BA%E6%85%A7%E5%9F%8E.jpeg,34.804373,113.676837
1278,郑州风玩数码影石Insta360照材售点,合作体验点,河南省,郑州市,金水区,东风路与文博西路交汇处智汇城一楼A1009号,,,https://res.insta360.com/static/2d513e65b980f6d7873a99c5c99bd47f/%E9%83%91%E5%B7%9E%E9%A3%8E%E7%8E%A9%E6%95%B0%E7%A0%81%E5%BD%B1%E7%9F%B3Insta360%E6%8E%88%E6%9D%83%E4%BD%93%E9%AA%8C%E5%BA%97.png,34.804025,113.67852
1212,影石Insta360百脑汇凌越照材专区,合作体验点,河南省,郑州市,金水区,东风路百脑汇一楼1A21/金水区文化路硅谷广场A座1809,,,,34.805183,113.677585
1512,影石Insta360洛阳大卫天地授权体验店,授权专卖店,河南省,洛阳市,西工区,河南省洛阳市西工区中州中路丹尼斯大卫天地8F影石Insta360,09:30——22:00,17739093233,https://res.insta360.com/static/661f552fa9ce5d8125d2291b818a506d/20251015-191014.jpg,34.68,112.44
1586,影石Insta360洛阳王城公园照材专卖店,授权专卖店,河南省,洛阳市,西工区,河南省洛阳市西工区中州中路312号17-18 商铺，影石Insta360王城公园店,9：00-19：00,13838888481,https://res.insta360.com/static/45b098314fabf304261633b4250ae923/20251112-120454.jpg,34.67,112.43
820,泉舜购物中心店,合作体验点,河南省,洛阳市,洛龙区,牡丹大道166号泉舜购物中心一层1057号（尚派）,,,,34.618464,112.460733
1207,安阳飞越数码摄影器材店,合作体验点,河南省,安阳市,北关区,红旗路金豪数码广场二楼B221,,,https://res.insta360.com/static/d2b703c40a305685008edddb9762e3ab/%E5%AE%89%E9%98%B3%E9%A3%9E%E8%B7%83%E6%95%B0%E7%A0%81.png,36.115587,114.360707
1501,影石Insta360商丘正弘汇授权体验店,授权专卖店,河南省,商丘市,梁园区,河南省商丘市梁园区前进街道神火大道正弘汇一楼L155号,10：00-22：00,19059705213,https://res.insta360.com/static/b0d907e608db4abb0a13a762b67829ae/04ac43a9677196fa60c30783de6af929.jpg,34.44,115.66
1394,影石Insta360武汉梦时代授权体验店,授权专卖店,湖北省,武汉市,武昌区,中南路街道武珞路598号武商梦时代负一层A-037A,10:00-22:00,19036916602,https://res.insta360.com/static/2db1ef557b77730f039efc588599cf60/%E6%A2%A6%E6%97%B6%E4%BB%A35.jpeg,30.53502,114.347113
1513,影石Insta360武汉万象城授权体验店,授权专卖店,湖北省,武汉市,江岸区,湖北省武汉市江岸区建设大道668号武汉万象城6FD603店铺,10：00-22：00,15795648152,https://res.insta360.com/static/905d0f247eb89b2ed1dfa73864895d19/photo_1760581363866.JPEG,30.61,114.29
1442,影石Insta360武汉天地壹方授权体验店,授权专卖店,湖北省,武汉市,江岸区,湖北省武汉市江岸区永清街道中山大道591号武汉天地壹方购物中心L1-A3,10：00-22：00,13750383214,https://res.insta360.com/static/c8ba583b5c92c674645ef4c6c97ab454/image.png,30.62,114.32
1338,影石Insta360武汉甘露山授权体验店,授权专卖店,湖北省,武汉市,黄陂区,前川街文创城社区甘露山文创城项目中101地块冰雪综合体中配套商业区城F1-M14-1号商铺 影石Insta360武汉甘露山店,周一～周五10:00-21:00 周六～周日10:00-22:00,13971272669,https://res.insta360.com/static/c52c82b8fc92e487d82282e8b71bb3fc/IMG_20241001_101022.jpg,30.890285,114.410856
1520,影石Insta360武汉婚纱摄影照材专卖店,授权专卖店,湖北省,武汉市,江岸区,湖北省武汉市江岸区胜利街6号一楼1011商铺,9:00-18:00,15337204720,https://res.insta360.com/static/c2031ffeb8d4b1913ec51f6e3b6ea538/IMG_20250805_100658.jpg,30.59,114.3
1455,OPPO｜一加 旗舰店(武汉楚河汉街店),合作体验点,湖北省,武汉市,武昌区,湖北省武汉市武昌区水果湖街街道商业广场室内步行街J4-2-3号OPPO旗舰店,10:00:00~22:00:00,027-87718188,,30.558375,114.337521
1359,武汉季佳PAI影石Insta360售点,授权专卖店,湖北省,武汉市,洪山区,珞喻路1号季佳PAI商场一层1010号（2号/8号地铁街道口C口出右转即到）,,,https://res.insta360.com/static/790ee27e7686f00ed680d88f337ea6db/%E6%88%AA%E5%B1%8F2025-02-11%2014.13.53.png,30.533533,114.360537
961,武汉咔拍佳汇馆,合作体验点,湖北省,武汉市,江岸区,汉口胜利街6号武汉婚纱照材城一楼A区1009号,,,,30.58605,114.300178
1437,武汉市盈科照材店,合作体验点,湖北省,武汉市,江岸区,湖北省武汉市江岸区武汉市江岸区南京路18号盈科摄影器材专卖店,,,,30.59,114.3
1322,e·Fun Super（武汉SKP店）,合作体验点,湖北省,武汉市,武昌区,汉街武汉SKP-3号门4楼E fun super ,,13007112592,https://res.insta360.com/static/e73d6debe225174bf7abca2581259408/%E6%88%AA%E5%B1%8F2024-08-07%2017.54.52.png,30.562715,114.344689
1436,武汉若羽臣科技照材店,合作体验点,湖北省,武汉市,洪山区,湖北省武汉市洪山区武汉市洪山区珞狮路352号附30京东电脑数码南湖澳新学院店,,,,30.49,114.34
934,宜昌凯能数码科技照材店,合作体验点,湖北省,宜昌市,西陵区,珍珠路53号,,,https://res.insta360.com/static/56582470c16969cead88b47dfe01e18d/%E5%87%AF%E8%83%BD.jpeg,30.712345,111.293454
1222,襄阳现代城万鑫数码照材店,合作体验点,湖北省,襄阳市,樊城区,春园路现代城三楼万鑫数码,,,https://res.insta360.com/static/d008a0231098f15d3391abfad35cbd4f/76d64115d3b2a280f1c9c0a8055d099.jpg,32.058367,112.143747
1475,影石Insta360长沙万象城授权体验店,授权专卖店,湖南省,长沙市,岳麓区,湖南省长沙市岳麓区桐梓坡路11号长沙万象城L135号DL102,10：00-22：00,19173739900,https://res.insta360.com/static/721f05e70d5df8fb9217d960d6f20fac/img_v3_02p9_e93334bd-7b7c-4dad-bd13-c6398696675g.jpg,28.22,112.96
1493,影石Insta360长沙星城天地授权体验店,授权专卖店,湖南省,长沙市,雨花区,湖南省长沙市雨花区湘府东路二段398号步步高星城天地G层G041B商铺影石Insta360,10.00-22.00,19397987466,https://res.insta360.com/static/0cafe13e39ca3538da09c987984f308e/IMG_20250929_165827.jpg,28.12,113.02
1351,影石Insta360长沙IFS授权体验店,授权专卖店,湖南省,长沙市,芙蓉区,解放西路188号IFS国际金融中心地下一层LG116A号商铺,周一～周日10:00-22:00,17373132601,https://res.insta360.com/static/31cc3842fd662d247c0aaba218ac5d7e/%E9%95%BF%E6%B2%99IFS%E6%8E%88%E6%9D%83%E4%B8%93%E5%8D%96%E5%BA%97.jpeg,28.198535,112.986454
1465,影石Insta360长沙科佳电脑城照材专卖店,授权专卖店,湖南省,长沙市,芙蓉区,湖南省长沙市芙蓉区朝阳街道车站中路21号科佳电脑城一楼（火车站对面）,09:00-18:30,15388090416,https://res.insta360.com/static/ae6a0b4856e9760e75755c81d2c49c49/8f5e227ad8ce2cc7813969200f37c7c1.JPEG,28.2,113.02
1574,影石Insta360湖南摄影城照材专卖店,授权专卖店,湖南省,长沙市,芙蓉区,湖南省长沙市芙蓉区解放东路湖南摄影城一楼138号影石Insta360照材专卖店,9:00-18:00,15973120697,https://res.insta360.com/static/7cf4bc1c6e8cb2fe8e1a95157efd22ec/20251106-121758.jpg,28.2,113.02
1466,影石Insta360长沙高桥数码广场照材专卖店,授权专卖店,湖南省,长沙市,雨花区,湖南省长沙市雨花区高桥现代商贸城4栋1楼03号东门入口 ,09:00-18:30,15675881828,https://res.insta360.com/static/7967d594ffd97dfbde7d5321e187dc14/img_v3_02r4_47dd83b5-58e0-4fd9-8faa-60cbc267d55g.jpg,28.18,113.03
1290,影石Insta360长沙国储照材店,合作体验点,湖南省,长沙市,芙蓉区,朝阳街道车站中路国储电脑城一楼二号,,,,28.197267,113.016743
1434,长沙恒佳摄影器材有限公司,合作体验点,湖南省,长沙市,芙蓉区, 湖南省长沙市芙蓉区解放东路46号湖南摄影城一楼135-136号,,,,28.2,113.02
1435,长沙群创照相器材有限公司,合作体验点,湖南省,长沙市,芙蓉区,湖南省长沙市芙蓉区湖南省长沙市芙蓉区赛格摄影城 1A12B,,,,28.2,113.02
1588,影石Insta360广州天河城授权体验店,授权专卖店,广东省,广州市,天河区,广东省广州市天河区天河路208号天河城购物中心3楼323铺影石Insta360,10：00-22：00,15360003665,https://res.insta360.com/static/8d88a66e68fe085e25e75ca92a58bbf4/%E5%B9%BF%E5%B7%9E%E5%A4%A9%E6%B2%B3%E5%9F%8E.jpg,23.14,113.33
1561,影石Insta360广州琶洲保利授权体验店,授权专卖店,广东省,广州市,海珠区,广州市海珠区琶洲蟠龙新街2号保利广场购物中心1层1061铺,10:00-22:00,19128896236,https://res.insta360.com/static/837ffb2e95abfc8e321009fd431720f7/img_v3_02r8_affdb3c7-9f32-49fc-bdbf-1a896bb8173g.jpg,23.11,113.39
1535,影石Insta360广州融创授权体验店,授权专卖店,广东省,广州市,花都区,广东省广州市花都区凤凰北路63号融创茂一楼影石Insta360（1082铺）,10：00-22：00,15899955380,https://res.insta360.com/static/1b9dd3f42f9fc1be5c21b6e65d9afa03/ac99fc998fcf02e217ef8ec80f1457cb.jpg,23.43,113.24
1355,影石Insta360广州广州塔广场授权体验店,授权专卖店,广东省,广州市,海珠区,广州塔路8号广州塔广场负一层B108商铺,周一～周日10:00-22:00,19926007927,https://res.insta360.com/static/22f3db04a54cea27d4fc3e70572573fb/20250117-144725.jpeg,23.11044,113.331202
1339,影石Insta360广州番禺天河城授权体验店,授权专卖店,广东省,广州市,番禺区,汉溪大道东366号,周一～周日10:00-22:00,13360560983,https://res.insta360.com/static/4e54a9837cf49cb34e2ecef9d977790b/3.jpg,23.009681,113.354503
1383,影石Insta360广州百脑汇照材专卖店,授权专卖店,广东省,广州市,天河区,广东省广州市天河区天河路598号百脑汇1B12(影石insta) ,周一～周日9:30-21:00,13184899989,https://res.insta360.com/static/a5f438b4501e71ea7c0b0dda905f26a6/wx_camera_1749643669165.jpg,23.8,113.2
1264,广州市越秀区忠忠摄影器材行,合作体验点,广东省,广州市,越秀区,大沙头路西菜地15号,,18122751607,,23.122673,113.290963
1453,OPPO｜一加 旗舰店(广州正佳店),合作体验点,广东省,广州市,天河区,广东省广州市天河区天河南街道 天河路228号正佳广场1A003/020、1A002、1A021-22,10:00:00~22:00:00,020-88138500,,23.133211,113.327453
1456,广州润宇数码,合作体验点,广东省,广州市,天河区,广州市天河区天河路502号天河电脑城一楼Z160-161铺,,13600076277,,23.133211,113.327453
1449,OPPO官方授权服务体验中心(广州越秀区中华广场店),合作体验点,广东省,广州市,越秀区,广东省广州市越秀区东山街道中山三路33号中华广场4楼4026/4027铺,10:00~22:00,020-83738896,,23.125566,113.281976
1451,OPPO官方授权体验店(广州天河区时尚天河店),合作体验点,广东省,广州市,天河区,广东省广州市天河区天河南街道天河路299号体育中心负一层东二街006B商铺,10:00:00~22:00:00,18924327252,,23.134059,113.325274
1450,OPPO官方授权体验店(广州白云区金铂广场龙归店),合作体验点,广东省,广州市,白云区,东省广州市白云区太和镇龙归龙岗路一号金铂广场一楼150A铺,10:00~22:00,19128902259,,23.267468,113.2941
1452,OPPO官方授权体验店(广州白云区嘉禾金铂天地店),合作体验点,广东省,广州市,白云区,广东省广州市白云区嘉禾街道金铂广场鹤龙二路85号金铂广场一楼131号铺,10:00:00~22:00:00,18688894292,,23.239528,113.282014
508,广州太古,合作体验点,广东省,广州市,天河区,天河路与天河东路交界处太古汇商场M层M12商铺（顺电）,,,,23.140343,113.338335
732,盛贤摄影器材城店,合作体验点,广东省,广州市,越秀区,大沙头二马路盛贤摄影器材城C3-11档,,,,23.123142,113.29044
1589,广东韶关风度名城广场影石授权售点,合作体验点,广东省,韶关市,浈江区,广东省韶关市浈江区解放路1号风度名城1层1D006号Apple官方授权店,,0751-8894688,,24.805278,113.606392
1224,影石Insta360深圳壹方城直营店,直营店,广东省,深圳市,宝安区,新安街道壹方城购物中心B2-054影石Insta360,周日～周四10:00-22:00 周五～周六10:00-22:30,19925294205,https://res.insta360.com/static/5a7d686d70f18910b89b604a637bd7b1/20231009-161836.jpeg,22.558666,113.894113
1390,影石Insta360深圳机场直营店,直营店,广东省,深圳市,宝安区,深圳宝安国际机场T3航站楼3C-01-01,7:00-22:30,19068088793,https://res.insta360.com/static/9b999e68b4cdf0b2a8bca61f9a92eed0/20250527-115825.jpeg,22.63381,113.81804
1330,影石Insta360深圳壹方汇直营店,直营店,广东省,深圳市,南山区,听海大道5059号前海壹方汇购物中心一楼3号门旁影石Insta360,周一～周日10:00-22:00,15361601817,https://res.insta360.com/static/f6934da8a2443aa9d277e196a341b1d5/20240829-164416.jpeg,22.535459,113.903148
1337,影石Insta360深圳龙华壹方天地授权体验店,授权专卖店,广东省,深圳市,龙华区,龙华街道3639号壹方天地C区LG-005,周一～周日10:00-22:00,19075357190,https://res.insta360.com/static/8ab72ff10bd19f0551592684f48b86e2/1.jpeg,22.650784,114.03583
1412,影石Insta360深圳大悦城授权体验店,授权专卖店,广东省,深圳市,宝安区,广东省深圳市宝安区新安街道创业二路与前进一路交会处宝安大悦城L101,10：00-22：00,18118752596,https://res.insta360.com/static/6c2305eb32cbbf774001c387b8cfdb3f/image-4.png,22.575287,113.908874
1461,影石Insta360深圳海岸城授权体验店,授权专卖店,广东省,深圳市,南山区,深圳市南山区粤海街道办文心五路33号海岸城购物广场2层279-280店铺,10:00-22:00,18923716021,https://res.insta360.com/static/6b5108e3013f86129eadcdc3703210b4/2413a4dfd32677c0d592c3d4822c812f.jpg,22.52,113.94
1500,影石Insta360深圳大运天地授权体验店,授权专卖店,广东省,深圳市,龙岗区,广东省深圳市龙岗区龙翔大道3001号深圳大运天地LG中岛店铺  LG层和L1层的位置,10：00-22：00,18123756437,https://res.insta360.com/static/d45b22107eee6487914a43ee7a770604/image.png,22.7,114.22
1356,影石Insta360深圳福田COCOPARK授权体验店,授权专卖店,广东省,深圳市,福田区,福华三路268号福田星河COCO Park购物中心北区负一楼 B1-127A,周一～周日10:00-22:00,18145767381,https://res.insta360.com/static/353c5ffa395db6f71bf13d4ffcaeb1bc/%E7%A6%8F%E7%94%B0.jpeg,22.539623,114.060805
1405,影石Insta360深圳KK ONE授权体验店,授权专卖店,广东省,深圳市,福田区,广东省深圳市福田区滨河大道9289号福田KKONE商场（京基滨河时代广场）L103,10：00-22：00,18570265225,https://res.insta360.com/static/1cc5e35b52167717896efcfd01fb19c4/kkone%E9%97%A8%E5%A4%B4%E5%9B%BE.jpeg,22.534179,114.033272
1479,影石Insta360深圳深业上城授权体验店,授权专卖店,广东省,深圳市,福田区,广东深圳市福田区皇岗路5001号深业上城L2-233店铺,10:00-22:00,13332968325,https://res.insta360.com/static/c9c15b565b87041ac1d43c975e7ae86e/image-2.png,22.56,114.08
1378,影石Insta360深圳新华强照材专卖店,授权专卖店,广东省,深圳市,福田区,深圳市福田区华强北路华强电子2店三楼q3c128房间，李先生,周一～周日 9:30-19:10,13544129994,https://res.insta360.com/static/a3acb88d47101cd04b039013200c4ee9/855a9fb4302454e4b05064abf2682bc.jpg,22.54871,114.092656
1379,影石Insta360深圳新华强照材专卖店二店,授权专卖店,广东省,深圳市,福田区,广东省深圳市福田区华强北新华强电子世界2店二楼Q2C099,周一~周四 10：00-19：30 周五~周天 10：00-20：30,15920046777,https://res.insta360.com/static/234216246b81d4f9872840cd533315b5/cc32aff3f3237b7b2035ea54a055e62.jpg,22.54871,114.092656
1485,影石Insta360深圳华强北赛格科技园照材专卖店,授权专卖店,广东省,深圳市,福田区,广东省深圳市福田区华强北街道华强北路3018号,10:00-22:00,19926804416,https://res.insta360.com/static/2cd4e6f34ba053d8c1a4bb6d665e4ebe/%E9%97%A8%E5%A4%B4%E2%80%98%E2%80%99.jpg,22.54871,114.092656
1262,深圳领汇金摄影器材,合作体验点,广东省,深圳市,福田区,华强电子世界二店三楼h3b020-023,,,,22.54871,114.092656
757,Z·Pilot黑科技旗舰店（南头古城）,合作体验点,广东省,深圳市,南山区,南头古城中山东路33号,,,,22.549263,113.929704
535,万象城店,合作体验点,广东省,深圳市,罗湖区,宝安南路华润万象城5楼（顺电）,,,,22.545504,114.117203
506,东门店,合作体验点,广东省,深圳市,罗湖区,深南东路2102号振华大厦1-2楼（顺电）,,,,22.550509,114.129435
512,华强店,合作体验点,广东省,深圳市,福田区,华强北路上步工业区103栋（顺电）,,,,22.553409,114.090414
532,太阳百货店,合作体验点,广东省,深圳市,罗湖区,解放路2001号利联太阳广场一期二楼（顺电）,,,,22.5517,114.124997
502,布吉万象汇店,合作体验点,广东省,深圳市,龙岗区,布吉街道翔鸽路2号华润万象汇4层L452（顺电）,,,,22.59918,114.137937
521,平安店,合作体验点,广东省,深圳市,福田区,福田街道福安社区益田路5033号（顺电）,,,,22.539489,114.061991
520,欧洲城店,合作体验点,广东省,深圳市,南山区,北环大道与沙河东路交界处欧洲城迪卡侬二楼（顺电）,,,,31.974437,120.899697
509,海岸城店,合作体验点,广东省,深圳市,南山区,文心五路33号海岸城购物中心负一层042号铺（顺电）,,,,22.522692,113.942489
510,海雅缤纷城店,合作体验点,广东省,深圳市,宝安区,建安一路99号海雅缤纷城518铺（香缤家乐福对面）（顺电）,,,,22.566182,113.912419
522,深圳万象前海购物中心2店,合作体验点,广东省,深圳市,南山区,听海大道与桂湾四路交汇处L2(万象前海购物中心)（顺电）,,,,22.537331,113.90636
536,深圳壹方城2店,合作体验点,广东省,深圳市,宝安区,新湖路99号壹方城L3-033-D-E（顺电）,,,,22.558656,113.894099
531,笋岗万象店,合作体验点,广东省,深圳市,罗湖区,"梅园路南侧、桃园路北侧深圳笋岗万象汇L317,L318号铺（顺电）",,,,22.566642,114.113908
511,花园城店,合作体验点,广东省,深圳市,南山区,蛇口南海大道花园城中心南区1-2楼（顺电）,,,,22.507209,113.929694
507,观澜湖店,合作体验点,广东省,深圳市,龙华区,观澜街道高尔夫大道8号观澜新城MHMALL（一期）1栋L2层L215216（顺电）,,,,22.728677,114.083247
516,龙华壹方城店,合作体验点,广东省,深圳市,龙华区,龙华街道景龙社区龙华大道3639号环智中心C座壹方天地C区L4-027（顺电）,,,,22.652512,114.037758
515,龙岗万科店,合作体验点,广东省,深圳市,龙岗区,龙翔大道与德政路交界处万科广场3F-42号（顺电）,,,,22.719822,114.249058
1268,广东珠海浩展科技有限公司,合作体验点,广东省,珠海市,香洲区,香洲东风路32号,,,,22.27814,113.585746
449,珠海华发商都旗舰店,合作体验点,广东省,珠海市,香洲区,珠海大道8号华发商都B馆1层C01（UP+）,,,,22.230924,113.517777
1523,影石Insta360佛山创意产业园授权专卖店,授权专卖店,广东省,佛山市,禅城区,广东省佛山市禅城区创意产业园33号楼122号,13：00-21：00,15304949991,https://res.insta360.com/static/86d12ebe5f3df834cc3bce159916f83f/mmexport1753029199330.jpg,23.02,113.1
1590,广东湛江霞山万达广场影石授权售点,合作体验点,广东省,湛江市,霞山区,湛江市霞山区海滨大道128号万达广场一楼1058铺 ,,0759-2834568,,21.254971,110.412344
1591,广东肇庆端州星湖国际影石Ista360授权售点,合作体验点,广东省,肇庆市,端州区,肇庆市端州区端州四路10号星湖国际广场3楼(大润发超市入口旁)-炬旺,,,,23.06243,112.478958
1492,影石Insta360惠州华贸授权体验店,授权专卖店,广东省,惠州市,惠城区,广东省惠州市惠城区华贸天地店铺L1-1142,10：00-22：00,18923645517,https://res.insta360.com/static/309aff96519c18671685c8e8ca75b98c/e6d0c33f01124b46fe49a0316c5398e6.jpg,23.11,114.42
1486,影石Insta360东莞悠兰里街区授权专卖店,授权专卖店,广东省,东莞市,南城街道,广东省东莞市松山湖文化艺术街区B3-101铺 吴记春 ,10:00-22:00,0769-27287666,https://res.insta360.com/static/fb8939a7a9b7948df992fddf5cfacc57/Luban_17604992971561cf0681e-a6e0-4771-8f9c-aee08de30d71.jpeg,22.92852,113.89308
1530,影石Insta360中山大信新都汇授权体验店,授权专卖店,广东省,中山市,石岐街道,中山市石岐区莲员东路2号首层1FB15号商铺,10:00~22:00,18144953592,https://res.insta360.com/static/0346e0dedfbb815340d1c930b04adad9/1-2.jpg,22.54,113.39
1347,影石Insta360中山石歧万象汇授权体验店,授权专卖店,广东省,中山市,石岐街道,石岐万象汇 LG128 ,周日～周四 10:00-22:00 周五～周六 10:00-22:30,18144953592,https://res.insta360.com/static/7e6facc4fa1286947aa2630be5ef7993/fdb809555d837fa3b0c7e4d86638aa7.jpg,22.526875,113.395056
1372,影石Insta360南宁万锦电脑城照材专区,授权专卖店,广西壮族自治区,南宁市,青秀区,广西南宁市青秀区星湖北一里万锦电脑城1A07、1A10铺 ,,15977703464,https://res.insta360.com/static/9c5b902f4662f23d5d08d2f8b17fb847/WechatIMG342.jpg,22.813308,108.346669
1386,南宁光驿摄影,合作体验点,广西壮族自治区,南宁市,青秀区,广西南宁市青秀区古城路2-8号星湖电影院一层111-6号光驿摄影,,13377189715,,22.812834,108.343158
755,广西未来智驾汽车贸易有限公司 ,合作体验点,广西壮族自治区,南宁市,青秀区,星湖路14号南宁电子科技广场1号楼5楼,,,,22.812263,108.346001
1511,影石Insta360柳州万象城授权体验店,授权专卖店,广西壮族自治区,柳州市,鱼峰区,广西省柳州市鱼峰区文昌路17号柳州万象城,10：00-22：00,19101120360,https://res.insta360.com/static/ed551a27ad61a7d3d02785e59af298a4/7473cf5a21044b916e9cd52d00037b90.jpg,24.33,109.46
1507,影石Insta360桂林万象城授权体验店,授权专卖店,广西壮族自治区,桂林市,秀峰区,广西省桂林市秀峰区红岭路1号桂林万象城L153影石Insta360,10：00-22：00,19111445159,https://res.insta360.com/static/618564b2aa296607fe81f75b712d1703/IMG_4429.HEIC,25.27,110.28
1573,影石Insta360海口天街授权体验店,授权专卖店,海南省,海口市,龙华区,海南省海口市龙华区南海大道15号龙湖海口天街C-1F-29,10:00-22:00,18689511411,https://res.insta360.com/static/9b94b2ec5dee4c055687565b95ee0391/20251104-183114.jpg,20.0,110.34
1373,三亚腾越数码,合作体验点,海南省,三亚市,天涯区,海南三亚市天涯区新风街237号创业大厦,,13876335389,https://res.insta360.com/static/9c3579bc992645830e842720d88fa190/%E5%9B%BE%E7%89%872.png,18.25774,109.514027
1374,三亚硕展（京东电脑数码）,合作体验点,海南省,三亚市,天涯区,海南省三亚市天涯区新风街74号 ,,13637536901,https://res.insta360.com/static/1a574d7515b7649d753f2a2dd21bae4b/%E5%9B%BE%E7%89%873.png,18.256836,109.512888
1375,海南锐度电子科技有限公司（千卓）,合作体验点,海南省,三亚市,天涯区,三亚市天涯区新风街创新电脑城一楼千卓数码,,13518863799,https://res.insta360.com/static/7bc427aa7c4f7c6e5a54c5b1ffceb0e8/%E5%9B%BE%E7%89%874.png,18.256648,109.511503
1397,影石Insta360重庆来福士授权专卖店,授权专卖店,重庆市,市辖区,渝中区,重庆市渝中区嘉陵江滨江路5号重庆来福士L1-62号,10:00-22:00,13983092469,https://res.insta360.com/static/da12af52faeb96c70d03e90fdcfd27c1/%E9%87%8D%E5%BA%86%E6%9D%A5%E7%A6%8F%E5%A3%AB.jpg,29.571063,106.593629
1473,影石Insta360重庆时代天街授权体验店,授权专卖店,重庆市,市辖区,渝中区,重庆市渝中区长江二路174号时代天街C馆L-22号,10:00-22:00,15310326067,https://res.insta360.com/static/fec6a7152d44e7e7f5ed13051c930e7c/794849be0c2d15b4e840544b7549a478.jpg,29.54,106.52
1477,影石Insta360重庆来福士授权体验店,授权专卖店,重庆市,市辖区,渝中区,重庆市渝中区嘉陵江滨江路5号重庆来福士L1-62号,10:00-22:00,13983092469,https://res.insta360.com/static/0156261cd80f880cd0ca514667625505/%E9%87%8D%E5%BA%86%E6%9D%A5%E7%A6%8F%E5%A3%AB.jpg,29.57,106.59
1504,影石Insta360重庆光环花园城授权体验店,授权专卖店,重庆市,市辖区,渝北区,重庆市 渝北区 同茂大道236号光环花园城A区-L1层-9号铺位影石insta360授权体验店,9：30-22：00,19389358580,https://res.insta360.com/static/232cdabcfb896cda56ce4e6b0f99bbf5/1.jpg,29.73,106.6
1288,影石Insta360重庆万象城授权体验店,授权专卖店,重庆市,市辖区,九龙坡区,谢家湾正街51、53号重庆万象城DLG16号商铺,周日～周四10:00-22:00 周五～周六及节假日10:00-22:30,15086883642,https://res.insta360.com/static/f087e1389778b993a6f162cd66b0ef0c/20240402-120746.jpeg,29.522704,106.525426
1478,影石Insta360重庆国泰广场授权专卖店,授权专卖店,重庆市,市辖区,渝中区,重庆市渝中区邹容路108号国泰广场第 负2层（B2层）钻石中庭C,10:00-22:00,18983617081,https://res.insta360.com/static/65b4352c92630a87dc304e80a23984bf/e3136443375d3205328e02daed682022.jpg,29.57,106.58
1419,影石Insta360重庆百脑汇照材专卖店,授权专卖店,重庆市,市辖区,九龙坡区,重庆市九龙坡区石桥铺百脑汇电脑城1B03 影石专卖店,周一9：00-周日18:30,17745084482,,29.54,106.49
1487,影石Insta360重庆石桥铺赛博广场照材专卖店,授权专卖店,重庆市,市辖区,九龙坡区,重庆市九龙坡区渝州路6号石桥铺赛博数码广场1楼1013  ,9:30-18:30,18723482272,,29.54,106.49
1420,影石Insta360重庆观音桥赛博数码广场照材专卖店,授权专卖店,重庆市,市辖区,江北区,重庆市江北区观音桥步行街5号芯赛博1F-1014,10:00-21:00,18723385175,https://res.insta360.com/static/2e5de05fc32a96877e2ea492bdd3b71c/image-4.png,29.58,106.54
1413,影石Insta360成都环球中心授权体验店,授权专卖店,四川省,成都市,武侯区,四川省成都市武侯区天府大道北段1700号环球中心1F,10:00-22:00,19960371882,https://res.insta360.com/static/f6c035776f688e48b51db356bdaebe68/image-6.png,30.574844,104.069852
1444,影石Insta360成都IFS授权体验店,授权专卖店,四川省,成都市,锦江区,四川省成都市锦江区红星路三段1号IFS六层L644K号商铺,10:00-22:00,18328524253,https://res.insta360.com/static/67bb3c8c65e60102295695d473f0f908/IMG_20250805_102322.jpg,30.66,104.09
1510,影石Insta360成都天府和悦广场授权体验店,授权专卖店,四川省,成都市,双流区,四川省成都市双流区四川省成都市双流区麓山大道二段199号天府和悦广场一楼中庭影石店,10：00-22：00,15208244550,https://res.insta360.com/static/8f4b289a37de57b26664e5194e9cdb52/0efd4c8659b5f2e26fc4f55875ab6663.jpg,30.49,104.09
1585,影石Insta360成都科华王府井授权体验店,授权专卖店,四川省,成都市,武侯区,四川省成都市武侯区科华路王府井1楼-B13,10：00-22：00,19180684465,https://res.insta360.com/static/50fdf9d28f8eac2a5dc7c2d1e3a390c5/%E6%88%90%E9%83%BD%E7%A7%91%E5%8D%8E%E7%8E%8B%E5%BA%9C%E4%BA%95.jpg,30.62,104.08
1508,影石Insta360成都SKP授权体验店,授权专卖店,四川省,成都市,武侯区,四川省成都市武侯区天府大道北段skp K大道中岛 insta360影石专卖店,10.30-22.30,15928541284,https://res.insta360.com/static/5bd763b79f0f325961e61df327da6726/WechatIMG22.jpg,30.58,104.07
1505,影石Insta360成都龙泉世茂广场授权体验店,授权专卖店,四川省,成都市,龙泉驿区,四川省成都市龙泉驿区大面街道金枫路833号15栋1层152号L1-52店铺,10:00-22:00,17828411306,https://res.insta360.com/static/6006f63f94f276b4c50fd88589e53e71/2f0d1d9d1fd27e1ea7d91e7fe7f29298.jpg,30.59,104.2
1328,影石Insta360成都大悦城授权体验店,授权专卖店,四川省,成都市,武侯区,大悦城购物中心1F-D11号,周一～周日10:00-22:00 ,18284470815,https://res.insta360.com/static/cdb8041b25b4e613caf6e56bf08a7c80/20240822-102610.jpeg,30.632063,104.017691
1404,影石Insta360成都金楠天街授权体验店,授权专卖店,四川省,成都市,武侯区,四川省成都市武侯区晋阳路龙湖金楠天街 1F-26号铺位,10:00-22:00,18349155695,https://res.insta360.com/static/c131b0b082387a72ff627b8f6b370c14/9bc99606fe89cf38d00bc6c2ba5e0be0.jpg,30.654224,104.002724
1445,影石Insta360成都西宸天街授权体验店,授权专卖店,四川省,成都市,金牛区,四川省成都市金牛区花照壁西顺街399号附115号1层A馆1F-15号,10:00-22:00,18482332045,https://res.insta360.com/static/12ca65ef8a429340d9ec2f9f8cc9e8e9/img_v3_02om_577ebc38-e62f-4b99-bdbc-fa3d8198a7fg.jpg,30.7,104.04
1381,影石Insta360成都金牛凯德授权体验店,授权专卖店,四川省,成都市,金牛区,金牛区九里堤街道凯德广场,周一～周日10:00-22:00,13408447177,https://res.insta360.com/static/39e3bad2637457b2d9e2116e5b8d8813/e82b442f21613b1f75819fd8d1f359a.jpg,30.709695,104.050963
1292,影石Insta360成都万象城授权体验店,授权专卖店,四川省,成都市,成华区,双庆路8号成都万象城C馆二楼215,周日～周四10:00-22:00 周五～周六及节假日10:00-22:30,15802883480,https://res.insta360.com/static/b6931635a0214c3ead97a21e96aeb89c/20240508-151243.jpeg,30.653804,104.122527
1494,影石Insta360成都滨江天街授权体验店,授权专卖店,四川省,成都市,成华区,四川省成都市成华区滨江天街L1-54号,9.30-22.00,17323179361,https://res.insta360.com/static/071106eab3d0ec878c9f8f97b622cf14/1760086564131.jpeg,30.67,104.13
1446,影石Insta360成都温江合生汇授权体验店,授权专卖店,四川省,成都市,温江区,四川省成都市温江区光华大道三段1588号1栋附101号成都合生汇L1层L1-E1-18号,10:00-22:00,17828133776,https://res.insta360.com/static/769846361234b9ae0ecfb13aee30abca/mmexport1758182298188.jpg,30.69,103.87
1533,影石Insta360成都天府艺术公园授权专卖店,授权专卖店,四川省,成都市,金牛区,四川省成都市金牛区北三环路一段111-113号天府艺术公园111号索尼SONY,,,,30.72,104.03
1421,影石Insta360成都数码广场照材专卖店A,授权专卖店,四川省,成都市,武侯区,四川省成都市武侯区人民南路四段1号数码广场1楼a8b 13908203715,9:00-18:00,13908203715,https://res.insta360.com/static/a705d6ef3e76791730057b067af18b39/image-2.png,30.64,104.07
1423,影石Insta360成都华凌摄影城照材专卖店,授权专卖店,四川省,成都市,金牛区,四川省成都市金牛区文家巷12号华凌婚纱摄影器材城一楼A27 ,9:00-18:30,19108190448,https://res.insta360.com/static/efe2f9e396a26a7aaa0814ecde18746a/photo_1758180773847.JPEG,30.69,104.05
1517,影石Insta360成都A世界照材专卖店,授权专卖店,四川省,成都市,武侯区,四川省成都市武侯区一环路南二段17号A世界电脑商城一楼001号,9.30-18.00,18123306865,https://res.insta360.com/static/67bf503748fec73ea2a4f7404401acef/IMG_1324.JPEG,30.64,104.07
1522,影石Insta360成都数码广场照材专卖店B,授权专卖店,四川省,成都市,武侯区,四川省成都市武侯区人民南路四段1号数码广场1楼B11,9:00-18:00,18010587558,https://res.insta360.com/static/6c9aee1cf11baaff7c4ddd33031fa98e/image-3.png,30.64,104.07
1422,成都数码广场照材店B,授权专卖店,四川省,成都市,武侯区,四川省成都市武侯区人民南路四段1号 成都数码广场一楼 B11-B13 ,9:00-18:30,13808028046,,30.64,104.07
504,成都万象城分店,合作体验点,四川省,成都市,成华区,双庆路8号成都万象城4楼（顺电）,,,,30.65547,104.122075
503,成都太古里店,合作体验点,四川省,成都市,锦江区,中纱帽街8号成都远洋太古里负一层M062号（顺电）,,,,30.659042,104.090075
1424,影石Insta360绵阳数码广场照材专卖店,授权专卖店,四川省,绵阳市,涪城区,四川省绵阳市涪城区数码广场1楼B2,9:00-18:30,13778147661,https://res.insta360.com/static/32fd2ed3528a51499121424a2be2bced/7fe33c7b7e08e60d79f74298c73bf628.jpg,31.47,104.75
1311,宏盛电脑经营部,合作体验点,四川省,遂宁市,船山区,大东街78号,,,https://res.insta360.com/static/ae510f3a9329d692b2dea27c2b4011aa/%E5%9B%BE%E7%89%874.png,30.509408,105.587356
1313,乐山恒达数码,合作体验点,四川省,乐山市,市中区,嘉定北路99号 久顺广场1FA13,,,https://res.insta360.com/static/25f37106cb4cb5a95c8b2d64f0f9946d/%E5%9B%BE%E7%89%876.png,29.587718,103.772232
1503,影石Insta360宜宾万象天地授权体验店,授权专卖店,四川省,宜宾市,叙州区,四川省宜宾市叙州区香路6号万象宜宾天地NL111号影视Insta360,10:00-22:30,17761000280,https://res.insta360.com/static/50d13cb952a96960c143bf1ab90d6e28/79e1206416d61d3f22299fc2d5a5c413.jpg,28.73,104.64
1308,广安市城南钰辉数码店,合作体验点,四川省,广安市,广安区,凌云路27号速度户外,,,https://res.insta360.com/static/5f3e3d2e5271409013b8c3d401081105/%E5%9B%BE%E7%89%871.png,30.463996,106.647446
1309,巴州区锐新计算机经营部,合作体验点,四川省,巴中市,巴州区,中南电脑城24号,,,https://res.insta360.com/static/8898de169e4fc3f977722274a8b0eaca/%E5%9B%BE%E7%89%872.png,31.858239,106.766972
1377,影石Insta360贵阳新大陆数码广场照材专卖店,授权专卖店,贵州省,贵阳市,南明区,贵州省贵阳市南明区中华南路新大陆电脑城1楼影石专营店,,19011722242,,26.581372,106.718916
1454,OPPO|一加 旗舰店（贵阳万象城店）,合作体验点,贵州省,贵阳市,南明区,贵州省贵阳市南明区遵义路街道万象城LG126+L119铺,周日-周四：10:00-22:00  周五-周六：10:00-22:30,0851-85202024,,26.560248,106.704624
1484,影石Insta360昆明恒隆授权体验店,授权专卖店,云南省,昆明市,盘龙区,昆明市盘龙区东风东路恒隆广场负一楼B134A-1,周一~周四10:00~22:00，周五~周日10:00~22:30,18987877998,https://res.insta360.com/static/8da9109946b3f11205a22f09a69d358c/%E9%97%A8%E5%A4%B4%20(1).jpg,25.04,102.73
750,影石Insta360昆明佰腾数码广场照材专卖店,授权专卖店,云南省,昆明市,五华区,云南省昆明市五华区圆通北路121号佰腾数码广场A座一楼B9a影石授权店,9:30-18:00,15287131837,,25.063306,102.712633
1332,影石Insta360昆明顺城授权体验店,授权专卖店,云南省,昆明市,五华区,东风西路11号顺城购物中心负一层B1-68号,周日～周四10:00-22:00，周五～周六10:00-22:30,13608815805,https://res.insta360.com/static/b042fa3b8b61e1f78080b2fa8a5ec3d8/20240909-123050.jpeg,25.041761,102.713809
942,昆明华臻铂金店佳汇馆,合作体验点,云南省,昆明市,五华区,圆通北路121号佰腾数码广场一楼临街,,,,25.063351,102.71264
1325,昆明云纺国际商厦店,合作体验点,云南省,昆明市,西山区,云纺国际商厦C座6楼62号,,18908807140,,25.027287,102.716389
679,昆明摩托装备授权体验店,合作体验点,云南省,昆明市,官渡区,福保路1号1栋1层凯旋利车博汇安骑天下装备店,,,,24.981067,102.725473
1471,影石Insta360西安万象城授权体验店,授权专卖店,陕西省,西安市,雁塔区,陕西省西安市雁塔区长安南路街道2899号万象城2楼,10:00-22:00,17792900579,https://res.insta360.com/static/e3c54da35b759c9dd2071e074bebe548/mmexport1757398882034.jpg,34.2,108.96
1472,影石Insta360西安赛格授权体验店,授权专卖店,陕西省,西安市,雁塔区,陕西省西安市雁塔区小寨东路赛格国际购物中心2F,10:00-22:00,13319299791,https://res.insta360.com/static/748f2bdec55cf6208371592aa16d0378/02771e37dee81b5102e2b9a72ee49c9.jpg,34.23,108.95
1568,影石Insta360西安荟聚授权体验店,授权专卖店,陕西省,西安市,雁塔区,西安市雁塔区子午大道6号西安荟聚中心(LG1)层 影石 Insta360,10:00-22:00,17391881158,https://res.insta360.com/static/8baee421e6092963e24fbd6ef5055525/20251104-182148.jpg,34.18,108.91
1577,影石Insta360西安SKP授权体验店,授权专卖店,陕西省,西安市,碑林区,陕西省西安市碑林区长安北路261号SKP 4楼影石,10：00-22：00,13032931126,https://res.insta360.com/static/184f00a864a80d90fde7ec0077e8d209/%E8%A5%BF%E5%AE%89skp1.png,34.25,108.96
1497,影石Insta360西安DT51授权体验店,授权专卖店,陕西省,西安市,雁塔区,陕西省西安市高新区唐延路69号陕西国际体育之窗DT51商场3楼Insta360专柜,10:00-22:00,17352684277,https://res.insta360.com/static/c73d8b12033bb5bfcc1b37026d8af133/%E5%BE%AE%E4%BF%A1%E5%9B%BE%E7%89%87_20250922121328_10_32.jpg,34.21,108.9
1463,影石Insta360西安百脑汇照材专卖店,授权专卖店,陕西省,西安市,碑林区,碑林区雁塔中路百脑汇电脑城一楼1E08影石Insta360专卖店  ,9:00-18:30,13669228897,https://res.insta360.com/static/3a6a3d9de376370957cfb52c17aae8b2/img_v3_02r4_47dd83b5-58e0-4fd9-8faa-60cbc267d55g.jpg,34.24,108.97
1516,影石Insta360西安百瑞未来城照材专卖店,授权专卖店,陕西省,西安市,碑林区,陕西省西安市碑林区雁塔路中段58号西安百瑞未来城A区一楼影石Insta360店,9：00-19：00,17302912592,https://res.insta360.com/static/1f3c46ee1d23ce0e4b6508be1a4f86a0/IMG_20250906_120615.jpg,34.24,108.97
1540,影石Insta360西安鹏博大厦照材专卖店,授权专卖店,陕西省,西安市,碑林区,西安市碑林区雁塔路19号鹏博大厦1层B01,9：30-19：30,15929317811,https://res.insta360.com/static/65e5776f9aaaa0f1cc865393009b9029/img_v3_02r4_5275d0c3-5ac6-435e-8d36-d4a625acec1g.jpg,34.24,108.97
1515,影石Insta360西安北部赛格广场照材专卖店,授权专卖店,陕西省,西安市,未央区,陕西省西安市凤城二路赛格电子市场二楼a2060影石Insta360,9.30-18.30,17795830325,https://res.insta360.com/static/31821a4a63af6bca2097039db940df8d/MVIMG_20250922_140952.jpg,34.32,108.95
1357,西安业新恒创数码影石Insta360照材售点,合作体验点,陕西省,西安市,碑林区,雁塔中路百脑汇一楼1E09室,,13669228897,https://res.insta360.com/static/fb5520bc87962109b6c2c8f342c1245e/%E6%88%AA%E5%B1%8F2025-02-11%2014.08.54.png,34.241324,108.96966
946,西安宏正兴旺赛格店,合作体验点,陕西省,西安市,碑林区,赛格电脑城B4010室,,,,34.239013,108.969807
1240,西安美邦照材售点,合作体验点,陕西省,西安市,碑林区,雁塔路百瑞未来城1-07号,,,,34.239015,108.969905
1358,西安齐趣乐享影石Insta360售点,合作体验点,陕西省,西安市,雁塔区,唐延路与科技七路交汇处高新万达广场三层3059号,,19991290408,https://res.insta360.com/static/b592a3216799f7c3758c6a9e42b305ec/%E6%88%AA%E5%B1%8F2025-02-11%2014.10.50.png,34.214847,108.898862
1243,西安元诚体验店,合作体验点,陕西省,西安市,碑林区,雁塔路赛格电脑城4楼a4002,,,,34.236925,108.96962
680,灞桥机车授权店,合作体验点,陕西省,西安市,灞桥区,华南城E1区12街2栋（伟业机车生活馆）,,,,34.370557,109.057234
822,熙地港购物中心店,合作体验点,陕西省,西安市,未央区,未央路170号熙地港购物中心L1-001号店铺（尚派）,,,,34.344528,108.951906
445,陕西西安钟楼店,合作体验点,陕西省,西安市,莲湖区,北大街22号中国电信,,,,34.267303,108.953839
1495,影石Insta360兰州万象城授权体验店,授权专卖店,甘肃省,兰州市,城关区,甘肃省兰州市城关区万象城L519号,10：00-22：00,19312959778,https://res.insta360.com/static/8013f1eb80da1a4e72dab9e2744ff93e/dc12650d-0991-48ee-a6dd-01f7e79716aa.jpg,36.06,103.85
787,甘肃百恩商贸有限公司,合作体验点,甘肃省,兰州市,城关区,东岗东路2704号万商国际临街1楼108A,,,,36.053014,103.879308
1569,影石Insta360西宁王府井授权体验店,授权专卖店,青海省,西宁市,城西区,青海省西宁市城西区五四西路68号王府井大象城购物中心1F,10:00-22:00,18595182671,https://res.insta360.com/static/2f071d90aae16b46a03daefb28db5f14/20251104-182345.jpg,36.65,101.73
828,万达广场一层1030号店,合作体验点,青海省,西宁市,城西区,广场路1号万达广场一层1030号铺（尚派）,,,,36.648626,101.722966
1496,影石Insta360银川阅彩城授权体验店,授权专卖店,宁夏回族自治区,银川市,金凤区,银川市金凤区正源北街 277 号 阅彩城项目 2 号楼 1 层 105A、105B 号商铺（影石）,10：00-22：00,17795183979,https://res.insta360.com/static/052eb4c995a75cb272fe7d14925fa5a1/93d934abff1307d6ceaeaefb0110fd43.jpg,38.52,106.26
915,Targn太耕集物电子产品集合店,合作体验点,宁夏回族自治区,银川市,金凤区,银川市金凤区正源北街277号建发阅彩城五层539号商铺（海底捞斜对面）,,,https://res.insta360.com/static/3dee6b5ffd5a16ea6ac978c51f3310c9/%E5%BA%97%E9%93%BA%E7%85%A7%E7%89%87.jpeg,38.519488,106.262096
829,银川大阅城店,合作体验点,宁夏回族自治区,银川市,金凤区,正源北街大阅城一层116号（尚派）,,,,38.519488,106.262096
1427,影石Insta360新疆宏景数码广场照材专卖店,授权专卖店,新疆维吾尔自治区,乌鲁木齐市,天山区,新疆乌鲁木齐天山区红旗路宏景数码广场C5C6,9:00-21:00,13319881259,https://res.insta360.com/static/846d1438288b09f45bff48dc74861687/8373228be1118b9f9c174982bd1611b2.jpg,43.8,87.62
1448,影石Insta360乌鲁木齐德汇万达授权体验店,授权专卖店,新疆维吾尔自治区,乌鲁木齐市,沙依巴克区,新疆维吾尔自治区乌鲁木齐市沙依巴克区奇台路658号德汇万达一楼步行街-DJ/1步行街-015,10:30-22:00,17797832111,https://res.insta360.com/static/721bcefdf18cb7dffc21337f49bede2e/3db99db31869e478bec21d6292a785d.jpg,43.8,87.59
1284,新疆汇天润佳能店,合作体验点,新疆维吾尔自治区,乌鲁木齐市,天山区,红旗路宏景数码广场A-13 A-14,,,,43.797896,87.623182
737,宏景数码店（A18）,合作体验点,新疆维吾尔自治区,乌鲁木齐市,天山区,红旗路宏景数码广场A18,,,,43.797903,87.623274
736,宏景数码店（sony）,合作体验点,新疆维吾尔自治区,乌鲁木齐市,天山区,红旗路宏景数码广场sony专店,,,,43.797903,87.623274
823,德汇万达广场店,合作体验点,新疆维吾尔自治区,乌鲁木齐市,沙依巴克区,奇台路720号德汇万达广场E栋一楼1035（尚派）,,,,43.795238,87.592056
824,汇嘉时代广场店,合作体验点,新疆维吾尔自治区,乌鲁木齐市,新市区,新疆乌鲁木齐市北京中路147号汇嘉时代广场一层（尚派）,,,,43.882018,87.563337
738,百花村国际信息大店,合作体验点,新疆维吾尔自治区,乌鲁木齐市,天山区,中山路百花村国际信息大厦14楼,,,,43.799808,87.622647
739,美美购物中心店,合作体验点,新疆维吾尔自治区,乌鲁木齐市,沙依巴克区,友好北路MM2美美购物中心四楼403铺,,,,43.826582,87.597418
744,百得电脑店,合作体验点,新疆维吾尔自治区,昌吉回族自治州,奇台县,新疆奇台县华东古城新街8-1-5奇台百得电脑,,,,44.014266,89.595388
740,克孜都维路赛特电脑城店,合作体验点,新疆维吾尔自治区,喀什地区,喀什市,新疆喀什市克孜都维路赛特电脑城一楼112号,,,,39.471813,75.984293
743,伊犁摄影图片社,合作体验点,新疆维吾尔自治区,伊犁哈萨克自治州,伊宁市,新疆伊宁市斯大林路60号伊犁摄影图片社,,,,43.922552,81.329934
742,电脑城道通店,合作体验点,新疆维吾尔自治区,伊犁哈萨克自治州,伊宁市,新疆伊宁市迎宾路铜锣湾电脑城一楼1-08号,,,,43.924255,81.333616
908,可可托海镇雪具店,合作体验点,新疆维吾尔自治区,阿勒泰地区,富蕴县,可可托海镇文化西路76-1号（兄弟滑雪雪具店）,,,,47.226697,89.821864
